{"type":"FeatureCollection","name":"atm","crs":{"type":"name","properties":{"name":"urn:ogc:def:crs:OGC:1.3:CRS84"}},"features":[{"type":"Feature","properties":{"osm_id":"10118555619","fclass":"atm","name":"ATM - TEB","banka":"TEB","komuna":"Vushtrri"},"geometry":{"type":"Point","coordinates":[20.98343,42.814919]}},{"type":"Feature","properties":{"osm_id":"10119480528","fclass":"atm","name":"ATM","banka":"E panjohur","komuna":"Prizren"},"geometry":{"type":"Point","coordinates":[20.598401,42.175136]}},{"type":"Feature","properties":{"osm_id":"10303000472","fclass":"atm","name":"ATM - TEB","banka":"TEB","komuna":"Prishtinë"},"geometry":{"type":"Point","coordinates":[21.17692,42.653605]}},{"type":"Feature","properties":{"osm_id":"10303000473","fclass":"atm","name":"ATM - Raiffeisen Bank","banka":"Raiffeisen Bank","komuna":"Prishtinë"},"geometry":{"type":"Point","coordinates":[21.176289,42.652513]}},{"type":"Feature","properties":{"osm_id":"10303000474","fclass":"atm","name":"ATM - NLB Banka","banka":"NLB Banka","komuna":"Prishtinë"},"geometry":{"type":"Point","coordinates":[21.176293,42.652508]}},{"type":"Feature","properties":{"osm_id":"10303000475","fclass":"atm","name":"ATM - ProCredit Bank","banka":"ProCredit Bank","komuna":"Prishtinë"},"geometry":{"type":"Point","coordinates":[21.176297,42.652502]}},{"type":"Feature","properties":{"osm_id":"10574943342","fclass":"atm","name":"ATM","banka":"E panjohur","komuna":"Prishtinë"},"geometry":{"type":"Point","coordinates":[21.177122,42.655801]}},{"type":"Feature","properties":{"osm_id":"10736714701","fclass":"atm","name":"ATM","banka":"E panjohur","komuna":"Prishtinë"},"geometry":{"type":"Point","coordinates":[21.12469,42.64613]}},{"type":"Feature","properties":{"osm_id":"10984614705","fclass":"atm","name":"ATM","banka":"E panjohur","komuna":"Prishtinë"},"geometry":{"type":"Point","coordinates":[21.155478,42.655312]}},{"type":"Feature","properties":{"osm_id":"11079006313","fclass":"atm","name":"ATM - BKT","banka":"BKT","komuna":"Prishtinë"},"geometry":{"type":"Point","coordinates":[21.158903,42.655547]}},{"type":"Feature","properties":{"osm_id":"11105692408","fclass":"atm","name":"ATM - Raiffeisen Bank","banka":"Raiffeisen Bank","komuna":"Gjilan"},"geometry":{"type":"Point","coordinates":[21.46031,42.466238]}},{"type":"Feature","properties":{"osm_id":"11110303806","fclass":"atm","name":"ATM - Raiffeisen Bank","banka":"Raiffeisen Bank","komuna":"Gjilan"},"geometry":{"type":"Point","coordinates":[21.464591,42.457012]}},{"type":"Feature","properties":{"osm_id":"11176130946","fclass":"atm","name":"ATM - TEB","banka":"TEB","komuna":"Klinë"},"geometry":{"type":"Point","coordinates":[20.576984,42.619301]}},{"type":"Feature","properties":{"osm_id":"11176130947","fclass":"atm","name":"ATM - Banka per Biznes (BPB)","banka":"Banka per Biznes (BPB)","komuna":"Klinë"},"geometry":{"type":"Point","coordinates":[20.57704,42.619007]}},{"type":"Feature","properties":{"osm_id":"11176130948","fclass":"atm","name":"ATM - NLB Banka","banka":"NLB Banka","komuna":"Klinë"},"geometry":{"type":"Point","coordinates":[20.575813,42.617943]}},{"type":"Feature","properties":{"osm_id":"11192579937","fclass":"atm","name":"ATM","banka":"E panjohur","komuna":"Prishtinë"},"geometry":{"type":"Point","coordinates":[21.135789,42.627757]}},{"type":"Feature","properties":{"osm_id":"11220647882","fclass":"atm","name":"ATM - NLB Banka","banka":"NLB Banka","komuna":"Prishtinë"},"geometry":{"type":"Point","coordinates":[21.153234,42.652809]}},{"type":"Feature","properties":{"osm_id":"11237585855","fclass":"atm","name":"ATM - Reifeissen","banka":"Reifeissen","komuna":"Prishtinë"},"geometry":{"type":"Point","coordinates":[21.153534,42.648185]}},{"type":"Feature","properties":{"osm_id":"11237585856","fclass":"atm","name":"ATM - TEB","banka":"TEB","komuna":"Prishtinë"},"geometry":{"type":"Point","coordinates":[21.153535,42.64816]}},{"type":"Feature","properties":{"osm_id":"11468830390","fclass":"atm","name":"ATM - Banka Ekonomike","banka":"Banka Ekonomike","komuna":"Gjakovë"},"geometry":{"type":"Point","coordinates":[20.431074,42.380132]}},{"type":"Feature","properties":{"osm_id":"11851230892","fclass":"atm","name":"ATM - Raiffeisen Bank","banka":"Raiffeisen Bank","komuna":"Prishtinë"},"geometry":{"type":"Point","coordinates":[21.152715,42.6534]}},{"type":"Feature","properties":{"osm_id":"11862977238","fclass":"atm","name":"Raiffeisen","banka":"Raiffeisen Bank","komuna":"Mitrovicë"},"geometry":{"type":"Point","coordinates":[20.865766,42.87741]}},{"type":"Feature","properties":{"osm_id":"11895833578","fclass":"atm","name":"ATM - Raiffeisen Bank","banka":"Raiffeisen Bank","komuna":"Pejë"},"geometry":{"type":"Point","coordinates":[20.287138,42.659193]}},{"type":"Feature","properties":{"osm_id":"11898520970","fclass":"atm","name":"ATM - BKT","banka":"BKT","komuna":"Pejë"},"geometry":{"type":"Point","coordinates":[20.305968,42.656621]}},{"type":"Feature","properties":{"osm_id":"11898521069","fclass":"atm","name":"ATM - Banka Ekonomike","banka":"Banka Ekonomike","komuna":"Pejë"},"geometry":{"type":"Point","coordinates":[20.30605,42.65669]}},{"type":"Feature","properties":{"osm_id":"11898521070","fclass":"atm","name":"ATM - TEB","banka":"TEB","komuna":"Pejë"},"geometry":{"type":"Point","coordinates":[20.306082,42.656707]}},{"type":"Feature","properties":{"osm_id":"11991429716","fclass":"atm","name":"ATM - BKT","banka":"BKT","komuna":"Fushë Kosovë"},"geometry":{"type":"Point","coordinates":[21.100454,42.640985]}},{"type":"Feature","properties":{"osm_id":"11991429717","fclass":"atm","name":"ATM - RZB","banka":"RZB","komuna":"Fushë Kosovë"},"geometry":{"type":"Point","coordinates":[21.100468,42.640963]}},{"type":"Feature","properties":{"osm_id":"12043345855","fclass":"atm","name":"ATM - Raiffeisen Bank","banka":"Raiffeisen Bank","komuna":"Pejë"},"geometry":{"type":"Point","coordinates":[20.297329,42.662323]}},{"type":"Feature","properties":{"osm_id":"12043461363","fclass":"atm","name":"ATM - BKT","banka":"BKT","komuna":"Mitrovicë"},"geometry":{"type":"Point","coordinates":[20.86605,42.880035]}},{"type":"Feature","properties":{"osm_id":"12043461364","fclass":"atm","name":"ATM - NLB Banka","banka":"NLB Banka","komuna":"Mitrovicë"},"geometry":{"type":"Point","coordinates":[20.866045,42.879927]}},{"type":"Feature","properties":{"osm_id":"12124487106","fclass":"atm","name":"ATM - TEB","banka":"TEB","komuna":"Lipjan"},"geometry":{"type":"Point","coordinates":[21.11857,42.526559]}},{"type":"Feature","properties":{"osm_id":"12205891593","fclass":"atm","name":"ATM - BKT","banka":"BKT","komuna":"Prishtinë"},"geometry":{"type":"Point","coordinates":[21.157993,42.655801]}},{"type":"Feature","properties":{"osm_id":"12205891594","fclass":"atm","name":"ATM - Raiffeisen Bank","banka":"Raiffeisen Bank","komuna":"Prishtinë"},"geometry":{"type":"Point","coordinates":[21.157993,42.655809]}},{"type":"Feature","properties":{"osm_id":"12345973854","fclass":"atm","name":"ATM - BKT","banka":"BKT","komuna":"Gjakovë"},"geometry":{"type":"Point","coordinates":[20.435766,42.372431]}},{"type":"Feature","properties":{"osm_id":"12345973855","fclass":"atm","name":"ATM - TEB","banka":"TEB","komuna":"Gjakovë"},"geometry":{"type":"Point","coordinates":[20.435813,42.372415]}},{"type":"Feature","properties":{"osm_id":"12535169887","fclass":"atm","name":"ATM - Raiffeisen Bank","banka":"Raiffeisen Bank","komuna":"Prishtinë"},"geometry":{"type":"Point","coordinates":[21.168107,42.653768]}},{"type":"Feature","properties":{"osm_id":"12690495103","fclass":"atm","name":"Poštanska štedionica","banka":"Poštanska štedionica","komuna":"Zveçan"},"geometry":{"type":"Point","coordinates":[20.783177,42.973313]}},{"type":"Feature","properties":{"osm_id":"12880652930","fclass":"atm","name":"ATM - Raiffeisen Bank","banka":"Raiffeisen Bank","komuna":"Lipjan"},"geometry":{"type":"Point","coordinates":[21.029124,42.575414]}},{"type":"Feature","properties":{"osm_id":"12880652931","fclass":"atm","name":"ATM - BKT","banka":"BKT","komuna":"Lipjan"},"geometry":{"type":"Point","coordinates":[21.029105,42.575413]}},{"type":"Feature","properties":{"osm_id":"13020264489","fclass":"atm","name":"ATM - BKT","banka":"BKT","komuna":"Lipjan"},"geometry":{"type":"Point","coordinates":[21.029006,42.575393]}},{"type":"Feature","properties":{"osm_id":"13028571579","fclass":"atm","name":"ATM - Paysera","banka":"Paysera","komuna":"Gjakovë"},"geometry":{"type":"Point","coordinates":[20.4346,42.371989]}},{"type":"Feature","properties":{"osm_id":"13083755242","fclass":"atm","name":"ATM - TEB","banka":"TEB","komuna":"Prishtinë"},"geometry":{"type":"Point","coordinates":[21.11131,42.64274]}},{"type":"Feature","properties":{"osm_id":"13094417347","fclass":"atm","name":"ATM - BKT","banka":"BKT","komuna":"Gjakovë"},"geometry":{"type":"Point","coordinates":[20.43112,42.378276]}},{"type":"Feature","properties":{"osm_id":"13247248687","fclass":"atm","name":"ATM - Raiffeisen Bank","banka":"Raiffeisen Bank","komuna":"Prishtinë"},"geometry":{"type":"Point","coordinates":[21.129738,42.646595]}},{"type":"Feature","properties":{"osm_id":"13247248688","fclass":"atm","name":"ATM - NLB Banka","banka":"NLB Banka","komuna":"Prishtinë"},"geometry":{"type":"Point","coordinates":[21.129737,42.646558]}},{"type":"Feature","properties":{"osm_id":"13265224380","fclass":"atm","name":"ATM - TEB","banka":"TEB","komuna":"Prishtinë"},"geometry":{"type":"Point","coordinates":[21.130639,42.647878]}},{"type":"Feature","properties":{"osm_id":"1489065476","fclass":"atm","name":"ATM - WinnerBet","banka":"WinnerBet","komuna":"Kamenicë"},"geometry":{"type":"Point","coordinates":[21.572631,42.583665]}},{"type":"Feature","properties":{"osm_id":"1622954883","fclass":"atm","name":"ATM","banka":"E panjohur","komuna":"Prishtinë"},"geometry":{"type":"Point","coordinates":[21.158786,42.65134]}},{"type":"Feature","properties":{"osm_id":"1675729161","fclass":"atm","name":"ATM","banka":"E panjohur","komuna":"Prizren"},"geometry":{"type":"Point","coordinates":[20.744042,42.216927]}},{"type":"Feature","properties":{"osm_id":"1706521742","fclass":"atm","name":"ATM","banka":"E panjohur","komuna":"Pejë"},"geometry":{"type":"Point","coordinates":[20.289593,42.659677]}},{"type":"Feature","properties":{"osm_id":"2039850978","fclass":"atm","name":"Raiffeisen Bank Kosovo","banka":"Raiffeisen Bank","komuna":"Prizren"},"geometry":{"type":"Point","coordinates":[20.73997,42.209326]}},{"type":"Feature","properties":{"osm_id":"2222","fclass":"atm","name":"ProCredit","banka":"ProCredit Bank","komuna":"Viti"},"geometry":{"type":"Point","coordinates":[21.33628,42.365105]}},{"type":"Feature","properties":{"osm_id":"2310343963","fclass":"atm","name":"Raiffeisen Bank Kosovo","banka":"Raiffeisen Bank","komuna":"Gjakovë"},"geometry":{"type":"Point","coordinates":[20.430506,42.383488]}},{"type":"Feature","properties":{"osm_id":"2544975309","fclass":"atm","name":"Raiffeisen Bank Kosovo","banka":"Raiffeisen Bank","komuna":"Mitrovicë"},"geometry":{"type":"Point","coordinates":[20.867125,42.888506]}},{"type":"Feature","properties":{"osm_id":"2545270330","fclass":"atm","name":"TEB","banka":"TEB","komuna":"Mitrovicë"},"geometry":{"type":"Point","coordinates":[20.869282,42.889258]}},{"type":"Feature","properties":{"osm_id":"2545270333","fclass":"atm","name":"ProCredit Bank Kosova","banka":"ProCredit Bank","komuna":"Mitrovicë"},"geometry":{"type":"Point","coordinates":[20.869207,42.889278]}},{"type":"Feature","properties":{"osm_id":"2784585099","fclass":"atm","name":"ATM - ProCredit Bank","banka":"ProCredit Bank","komuna":"Pejë"},"geometry":{"type":"Point","coordinates":[20.288276,42.659211]}},{"type":"Feature","properties":{"osm_id":"3373037655","fclass":"atm","name":"Banka Ekonomike","banka":"Banka Ekonomike","komuna":"Junik"},"geometry":{"type":"Point","coordinates":[20.277552,42.476039]}},{"type":"Feature","properties":{"osm_id":"3751732743","fclass":"atm","name":"ATM","banka":"E panjohur","komuna":"Gjakovë"},"geometry":{"type":"Point","coordinates":[20.422197,42.394635]}},{"type":"Feature","properties":{"osm_id":"3751732744","fclass":"atm","name":"ATM","banka":"E panjohur","komuna":"Gjakovë"},"geometry":{"type":"Point","coordinates":[20.430878,42.369747]}},{"type":"Feature","properties":{"osm_id":"3762057768","fclass":"atm","name":"ATM","banka":"E panjohur","komuna":"Gjakovë"},"geometry":{"type":"Point","coordinates":[20.443556,42.377416]}},{"type":"Feature","properties":{"osm_id":"4114866291","fclass":"atm","name":"ATM","banka":"E panjohur","komuna":"Vushtrri"},"geometry":{"type":"Point","coordinates":[20.96552,42.808586]}},{"type":"Feature","properties":{"osm_id":"4114873890","fclass":"atm","name":"ATM","banka":"E panjohur","komuna":"Vushtrri"},"geometry":{"type":"Point","coordinates":[20.965533,42.808609]}},{"type":"Feature","properties":{"osm_id":"4302170090","fclass":"atm","name":"TEB","banka":"TEB","komuna":"Podujevë"},"geometry":{"type":"Point","coordinates":[21.165926,42.799609]}},{"type":"Feature","properties":{"osm_id":"4351678700","fclass":"atm","name":"ATM","banka":"E panjohur","komuna":"Kaçanik"},"geometry":{"type":"Point","coordinates":[21.204544,42.198771]}},{"type":"Feature","properties":{"osm_id":"4365419590","fclass":"atm","name":"TEB","banka":"TEB","komuna":"Prishtinë"},"geometry":{"type":"Point","coordinates":[21.162434,42.648148]}},{"type":"Feature","properties":{"osm_id":"4365419591","fclass":"atm","name":"NLB Banka","banka":"NLB Banka","komuna":"Prishtinë"},"geometry":{"type":"Point","coordinates":[21.162445,42.648128]}},{"type":"Feature","properties":{"osm_id":"4381299490","fclass":"atm","name":"ATM","banka":"E panjohur","komuna":"Prishtinë"},"geometry":{"type":"Point","coordinates":[21.12857,42.644146]}},{"type":"Feature","properties":{"osm_id":"4410495689","fclass":"atm","name":"Raiffeisen Bank Kosovo","banka":"Raiffeisen Bank","komuna":"Vushtrri"},"geometry":{"type":"Point","coordinates":[20.964813,42.822967]}},{"type":"Feature","properties":{"osm_id":"4418767794","fclass":"atm","name":"Riffesen Bank","banka":"Riffesen Bank","komuna":"Prishtinë"},"geometry":{"type":"Point","coordinates":[21.16976,42.645419]}},{"type":"Feature","properties":{"osm_id":"4424617594","fclass":"atm","name":"ATM - TEB","banka":"TEB","komuna":"Prizren"},"geometry":{"type":"Point","coordinates":[20.742965,42.216463]}},{"type":"Feature","properties":{"osm_id":"4425602795","fclass":"atm","name":"NLB Banka","banka":"NLB Banka","komuna":"Prishtinë"},"geometry":{"type":"Point","coordinates":[21.170211,42.667655]}},{"type":"Feature","properties":{"osm_id":"4425609192","fclass":"atm","name":"Raiffeisen Bank Kosovo","banka":"Raiffeisen Bank","komuna":"Prishtinë"},"geometry":{"type":"Point","coordinates":[21.176572,42.66659]}},{"type":"Feature","properties":{"osm_id":"4426957590","fclass":"atm","name":"ATM - BKT","banka":"BKT","komuna":"Prishtinë"},"geometry":{"type":"Point","coordinates":[21.170779,42.646359]}},{"type":"Feature","properties":{"osm_id":"4452600389","fclass":"atm","name":"ATM - Raiffeisen Bank","banka":"Raiffeisen Bank","komuna":"Prishtinë"},"geometry":{"type":"Point","coordinates":[21.171597,42.659664]}},{"type":"Feature","properties":{"osm_id":"4476535620","fclass":"atm","name":"BPB ATM","banka":"Banka per Biznes (BPB)","komuna":"Prishtinë"},"geometry":{"type":"Point","coordinates":[21.146627,42.658277]}},{"type":"Feature","properties":{"osm_id":"4544769093","fclass":"atm","name":"ATM - IrfanBytyqi","banka":"IrfanBytyqi","komuna":"Ferizaj"},"geometry":{"type":"Point","coordinates":[21.196323,42.442538]}},{"type":"Feature","properties":{"osm_id":"4624301892","fclass":"atm","name":"ATM - dritoni","banka":"dritoni","komuna":"Prishtinë"},"geometry":{"type":"Point","coordinates":[21.170485,42.662423]}},{"type":"Feature","properties":{"osm_id":"4685822590","fclass":"atm","name":"ATM - 1","banka":"1","komuna":"Vushtrri"},"geometry":{"type":"Point","coordinates":[20.985887,42.820218]}},{"type":"Feature","properties":{"osm_id":"4688144392","fclass":"atm","name":"ATM - NNT Florenti-Aa","banka":"NNT Florenti-Aa","komuna":"Istog"},"geometry":{"type":"Point","coordinates":[20.472754,42.776712]}},{"type":"Feature","properties":{"osm_id":"4834310924","fclass":"atm","name":"ATM - TEB","banka":"TEB","komuna":"Prishtinë"},"geometry":{"type":"Point","coordinates":[21.161547,42.665592]}},{"type":"Feature","properties":{"osm_id":"4860057821","fclass":"atm","name":"TEB Bank","banka":"TEB","komuna":"Prishtinë"},"geometry":{"type":"Point","coordinates":[21.177794,42.659256]}},{"type":"Feature","properties":{"osm_id":"4967796021","fclass":"atm","name":"ATM - F.M.B Group","banka":"F.M.B Group","komuna":"Malishevë"},"geometry":{"type":"Point","coordinates":[20.728831,42.480843]}},{"type":"Feature","properties":{"osm_id":"4968309925","fclass":"atm","name":"ATM - N.T.P Prosan","banka":"N.T.P Prosan","komuna":"Gjakovë"},"geometry":{"type":"Point","coordinates":[20.439378,42.383705]}},{"type":"Feature","properties":{"osm_id":"4985871221","fclass":"atm","name":"ATM - drilongashi","banka":"drilongashi","komuna":"Prishtinë"},"geometry":{"type":"Point","coordinates":[21.174324,42.625493]}},{"type":"Feature","properties":{"osm_id":"4995217124","fclass":"atm","name":"ATM","banka":"E panjohur","komuna":"Istog"},"geometry":{"type":"Point","coordinates":[20.58509,42.783224]}},{"type":"Feature","properties":{"osm_id":"5010121222","fclass":"atm","name":"ATM - Villa Vedat Humolli","banka":"Villa Vedat Humolli","komuna":"Podujevë"},"geometry":{"type":"Point","coordinates":[21.162523,42.801718]}},{"type":"Feature","properties":{"osm_id":"5010215421","fclass":"atm","name":"ATM","banka":"E panjohur","komuna":"Gjilan"},"geometry":{"type":"Point","coordinates":[21.461102,42.452252]}},{"type":"Feature","properties":{"osm_id":"5104787927","fclass":"atm","name":"ATM","banka":"E panjohur","komuna":"Pejë"},"geometry":{"type":"Point","coordinates":[20.352175,42.586073]}},{"type":"Feature","properties":{"osm_id":"5132682651","fclass":"atm","name":"TEB ATM","banka":"TEB","komuna":"Prishtinë"},"geometry":{"type":"Point","coordinates":[21.161761,42.662136]}},{"type":"Feature","properties":{"osm_id":"5140737484","fclass":"atm","name":"NLB ATM","banka":"NLB Banka","komuna":"Prishtinë"},"geometry":{"type":"Point","coordinates":[21.162748,42.661773]}},{"type":"Feature","properties":{"osm_id":"5147133422","fclass":"atm","name":"ATM - iLiR PRISHTINA","banka":"iLiR PRISHTINA","komuna":"Prishtinë"},"geometry":{"type":"Point","coordinates":[21.14895,42.657883]}},{"type":"Feature","properties":{"osm_id":"5191825227","fclass":"atm","name":"ATM","banka":"E panjohur","komuna":"Ferizaj"},"geometry":{"type":"Point","coordinates":[21.163354,42.373651]}},{"type":"Feature","properties":{"osm_id":"5198419621","fclass":"atm","name":"ATM - TEB","banka":"TEB","komuna":"Prishtinë"},"geometry":{"type":"Point","coordinates":[21.154197,42.663562]}},{"type":"Feature","properties":{"osm_id":"5213513123","fclass":"atm","name":"Kishnica","banka":"Kishnica","komuna":"Graçanicë"},"geometry":{"type":"Point","coordinates":[21.218053,42.600743]}},{"type":"Feature","properties":{"osm_id":"5218804221","fclass":"atm","name":"ATM - Banka per Biznes (BPB)","banka":"Banka per Biznes (BPB)","komuna":"Prishtinë"},"geometry":{"type":"Point","coordinates":[21.169387,42.652213]}},{"type":"Feature","properties":{"osm_id":"5235513321","fclass":"atm","name":"ATM","banka":"E panjohur","komuna":"Viti"},"geometry":{"type":"Point","coordinates":[21.446112,42.354939]}},{"type":"Feature","properties":{"osm_id":"5335619954","fclass":"atm","name":"ATM - TEB","banka":"TEB","komuna":"Ferizaj"},"geometry":{"type":"Point","coordinates":[21.167289,42.382635]}},{"type":"Feature","properties":{"osm_id":"5341202722","fclass":"atm","name":"ATM - petroll company","banka":"petroll company","komuna":"Fushë Kosovë"},"geometry":{"type":"Point","coordinates":[21.079738,42.608896]}},{"type":"Feature","properties":{"osm_id":"5426989321","fclass":"atm","name":"ATM - Security Code","banka":"Security Code","komuna":"Prishtinë"},"geometry":{"type":"Point","coordinates":[21.170732,42.645182]}},{"type":"Feature","properties":{"osm_id":"5521449942","fclass":"atm","name":"ATM - work","banka":"work","komuna":"Prishtinë"},"geometry":{"type":"Point","coordinates":[21.170758,42.645209]}},{"type":"Feature","properties":{"osm_id":"5567374436","fclass":"atm","name":"ATM - Reiffeisenbank","banka":"Reiffeisenbank","komuna":"Pejë"},"geometry":{"type":"Point","coordinates":[20.299352,42.652827]}},{"type":"Feature","properties":{"osm_id":"5598907023","fclass":"atm","name":"ATM - Home","banka":"Home","komuna":"Ferizaj"},"geometry":{"type":"Point","coordinates":[21.129513,42.349304]}},{"type":"Feature","properties":{"osm_id":"5612224122","fclass":"atm","name":"ATM","banka":"E panjohur","komuna":"Vushtrri"},"geometry":{"type":"Point","coordinates":[20.968938,42.822334]}},{"type":"Feature","properties":{"osm_id":"5677728832","fclass":"atm","name":"ATM - BKT","banka":"BKT","komuna":"Prishtinë"},"geometry":{"type":"Point","coordinates":[21.170152,42.646022]}},{"type":"Feature","properties":{"osm_id":"5744947722","fclass":"atm","name":"ATM - ProCredit Bank","banka":"ProCredit Bank","komuna":"Therandë"},"geometry":{"type":"Point","coordinates":[20.825634,42.358362]}},{"type":"Feature","properties":{"osm_id":"5793613853","fclass":"atm","name":"ATM - Pcb","banka":"Pcb","komuna":"Prishtinë"},"geometry":{"type":"Point","coordinates":[21.172803,42.648773]}},{"type":"Feature","properties":{"osm_id":"5812233854","fclass":"atm","name":"NLB ATM","banka":"NLB Banka","komuna":"Prishtinë"},"geometry":{"type":"Point","coordinates":[21.17461,42.655913]}},{"type":"Feature","properties":{"osm_id":"5905850505","fclass":"atm","name":"ATM - TEB","banka":"TEB","komuna":"Prishtinë"},"geometry":{"type":"Point","coordinates":[21.151746,42.63066]}},{"type":"Feature","properties":{"osm_id":"5907768988","fclass":"atm","name":"ATM","banka":"E panjohur","komuna":"Gjakovë"},"geometry":{"type":"Point","coordinates":[20.43341,42.377453]}},{"type":"Feature","properties":{"osm_id":"5907768990","fclass":"atm","name":"ATM","banka":"E panjohur","komuna":"Gjilan"},"geometry":{"type":"Point","coordinates":[21.478766,42.470725]}},{"type":"Feature","properties":{"osm_id":"5980768550","fclass":"atm","name":"ATM","banka":"E panjohur","komuna":"Kastriot"},"geometry":{"type":"Point","coordinates":[21.073914,42.681349]}},{"type":"Feature","properties":{"osm_id":"5984939382","fclass":"atm","name":"ATM - Raiffeisen Bank","banka":"Raiffeisen Bank","komuna":"Lipjan"},"geometry":{"type":"Point","coordinates":[21.122386,42.524056]}},{"type":"Feature","properties":{"osm_id":"6021596597","fclass":"atm","name":"ATM - TEB","banka":"TEB","komuna":"Graçanicë"},"geometry":{"type":"Point","coordinates":[21.132642,42.603366]}},{"type":"Feature","properties":{"osm_id":"6021596598","fclass":"atm","name":"ATM - BKT","banka":"BKT","komuna":"Graçanicë"},"geometry":{"type":"Point","coordinates":[21.132607,42.603399]}},{"type":"Feature","properties":{"osm_id":"6021596599","fclass":"atm","name":"ATM - Raiffeisen Bank","banka":"Raiffeisen Bank","komuna":"Graçanicë"},"geometry":{"type":"Point","coordinates":[21.132574,42.603436]}},{"type":"Feature","properties":{"osm_id":"6021596600","fclass":"atm","name":"ATM - ProCredit Bank","banka":"ProCredit Bank","komuna":"Graçanicë"},"geometry":{"type":"Point","coordinates":[21.132543,42.603471]}},{"type":"Feature","properties":{"osm_id":"6031298485","fclass":"atm","name":"ATM - TEB","banka":"TEB","komuna":"Malishevë"},"geometry":{"type":"Point","coordinates":[20.718124,42.570042]}},{"type":"Feature","properties":{"osm_id":"6031306285","fclass":"atm","name":"ATM - TEB","banka":"TEB","komuna":"Malishevë"},"geometry":{"type":"Point","coordinates":[20.718153,42.569443]}},{"type":"Feature","properties":{"osm_id":"603647273","fclass":"atm","name":"Raifeisen Bank","banka":"Raiffeisen Bank","komuna":"Prishtinë"},"geometry":{"type":"Point","coordinates":[21.171986,42.671597]}},{"type":"Feature","properties":{"osm_id":"6111423285","fclass":"atm","name":"ATM - ProCredit Bank","banka":"ProCredit Bank","komuna":"Prishtinë"},"geometry":{"type":"Point","coordinates":[21.172827,42.648633]}},{"type":"Feature","properties":{"osm_id":"612468774","fclass":"atm","name":"ATM","banka":"E panjohur","komuna":"Prishtinë"},"geometry":{"type":"Point","coordinates":[21.160224,42.659693]}},{"type":"Feature","properties":{"osm_id":"6239960186","fclass":"atm","name":"ATM - Lagjja Buzhala","banka":"Lagjja Buzhala","komuna":"Malishevë"},"geometry":{"type":"Point","coordinates":[20.711446,42.580185]}},{"type":"Feature","properties":{"osm_id":"6268672585","fclass":"atm","name":"ATM","banka":"E panjohur","komuna":"Pejë"},"geometry":{"type":"Point","coordinates":[20.307918,42.648697]}},{"type":"Feature","properties":{"osm_id":"6309116485","fclass":"atm","name":"ATM","banka":"E panjohur","komuna":"Therandë"},"geometry":{"type":"Point","coordinates":[20.783368,42.296233]}},{"type":"Feature","properties":{"osm_id":"6356080485","fclass":"atm","name":"ATM - X-tec KAMINA","banka":"X-tec KAMINA","komuna":"Therandë"},"geometry":{"type":"Point","coordinates":[20.817739,42.342418]}},{"type":"Feature","properties":{"osm_id":"6367814885","fclass":"atm","name":"ATM","banka":"E panjohur","komuna":"Artanë"},"geometry":{"type":"Point","coordinates":[21.463412,42.493318]}},{"type":"Feature","properties":{"osm_id":"6378873538","fclass":"atm","name":"ATM","banka":"E panjohur","komuna":"Viti"},"geometry":{"type":"Point","coordinates":[21.356972,42.318675]}},{"type":"Feature","properties":{"osm_id":"6400742285","fclass":"atm","name":"ATM - BKT","banka":"BKT","komuna":"Prishtinë"},"geometry":{"type":"Point","coordinates":[21.111096,42.64272]}},{"type":"Feature","properties":{"osm_id":"6431798609","fclass":"atm","name":"Teb SH.A","banka":"TEB","komuna":"Prishtinë"},"geometry":{"type":"Point","coordinates":[21.174762,42.65588]}},{"type":"Feature","properties":{"osm_id":"6431815240","fclass":"atm","name":"ATM - NLB Banka","banka":"NLB Banka","komuna":"Prizren"},"geometry":{"type":"Point","coordinates":[20.742932,42.216442]}},{"type":"Feature","properties":{"osm_id":"6440441085","fclass":"atm","name":"ATM","banka":"E panjohur","komuna":"Mitrovicë"},"geometry":{"type":"Point","coordinates":[20.85307,42.882552]}},{"type":"Feature","properties":{"osm_id":"6488329691","fclass":"atm","name":"ATM","banka":"E panjohur","komuna":"Prizren"},"geometry":{"type":"Point","coordinates":[20.740914,42.215293]}},{"type":"Feature","properties":{"osm_id":"6708186590","fclass":"atm","name":"ATM - NLB Banka","banka":"NLB Banka","komuna":"Gjakovë"},"geometry":{"type":"Point","coordinates":[20.434816,42.376596]}},{"type":"Feature","properties":{"osm_id":"6768858585","fclass":"atm","name":"ATM - Raiffeisen Bank","banka":"Raiffeisen Bank","komuna":"Prizren"},"geometry":{"type":"Point","coordinates":[20.743096,42.217552]}},{"type":"Feature","properties":{"osm_id":"6775857385","fclass":"atm","name":"ATM - raba","banka":"raba","komuna":"Ferizaj"},"geometry":{"type":"Point","coordinates":[21.150491,42.368942]}},{"type":"Feature","properties":{"osm_id":"6790595885","fclass":"atm","name":"ATM - Banka per Biznes (BPB)","banka":"Banka per Biznes (BPB)","komuna":"Prizren"},"geometry":{"type":"Point","coordinates":[20.736984,42.209555]}},{"type":"Feature","properties":{"osm_id":"6814499986","fclass":"atm","name":"ATM - Raiffeisen Bank","banka":"Raiffeisen Bank","komuna":"Leposaviq"},"geometry":{"type":"Point","coordinates":[20.800459,43.103133]}},{"type":"Feature","properties":{"osm_id":"6827188086","fclass":"atm","name":"ATM","banka":"E panjohur","komuna":"Lipjan"},"geometry":{"type":"Point","coordinates":[21.029419,42.57465]}},{"type":"Feature","properties":{"osm_id":"6851472070","fclass":"atm","name":"ATM - NLB Banka","banka":"NLB Banka","komuna":"Gjilan"},"geometry":{"type":"Point","coordinates":[21.46853,42.46205]}},{"type":"Feature","properties":{"osm_id":"6920295201","fclass":"atm","name":"ATM","banka":"E panjohur","komuna":"Prizren"},"geometry":{"type":"Point","coordinates":[20.743404,42.21085]}},{"type":"Feature","properties":{"osm_id":"6924669985","fclass":"atm","name":"ATM - BKT","banka":"BKT","komuna":"Prizren"},"geometry":{"type":"Point","coordinates":[20.728846,42.214639]}},{"type":"Feature","properties":{"osm_id":"7132171185","fclass":"atm","name":"ATM - TEB","banka":"TEB","komuna":"Prizren"},"geometry":{"type":"Point","coordinates":[20.725614,42.214947]}},{"type":"Feature","properties":{"osm_id":"7140024497","fclass":"atm","name":"ATM","banka":"E panjohur","komuna":"Gjilan"},"geometry":{"type":"Point","coordinates":[21.467421,42.468911]}},{"type":"Feature","properties":{"osm_id":"7173247486","fclass":"atm","name":"ATM - Daja aziz","banka":"Daja aziz","komuna":"Gjilan"},"geometry":{"type":"Point","coordinates":[21.471894,42.441556]}},{"type":"Feature","properties":{"osm_id":"7315096035","fclass":"atm","name":"ATM - ProCredi Bank","banka":"ProCredi Bank","komuna":"Kastriot"},"geometry":{"type":"Point","coordinates":[21.06833,42.686338]}},{"type":"Feature","properties":{"osm_id":"7342894234","fclass":"atm","name":"BKT","banka":"BKT","komuna":"Vushtrri"},"geometry":{"type":"Point","coordinates":[20.965424,42.823717]}},{"type":"Feature","properties":{"osm_id":"7905153759","fclass":"atm","name":"ATM - Banka per Biznes (BPB)","banka":"Banka per Biznes (BPB)","komuna":"Prishtinë"},"geometry":{"type":"Point","coordinates":[21.146014,42.658049]}},{"type":"Feature","properties":{"osm_id":"7905153760","fclass":"atm","name":"ATM - TEB","banka":"TEB","komuna":"Prishtinë"},"geometry":{"type":"Point","coordinates":[21.145843,42.6579]}},{"type":"Feature","properties":{"osm_id":"7918163986","fclass":"atm","name":"ATM - Raiffeisen Bank","banka":"Raiffeisen Bank","komuna":"Podujevë"},"geometry":{"type":"Point","coordinates":[21.192212,42.908119]}},{"type":"Feature","properties":{"osm_id":"7923029785","fclass":"atm","name":"ATM - Banka Ekonomike","banka":"Banka Ekonomike","komuna":"Prizren"},"geometry":{"type":"Point","coordinates":[20.742808,42.216646]}},{"type":"Feature","properties":{"osm_id":"8131364596","fclass":"atm","name":"ATM - Raiffeisen Bank","banka":"Raiffeisen Bank","komuna":"Gjilan"},"geometry":{"type":"Point","coordinates":[21.463123,42.469043]}},{"type":"Feature","properties":{"osm_id":"8316392519","fclass":"atm","name":"ATM","banka":"E panjohur","komuna":"Prizren"},"geometry":{"type":"Point","coordinates":[20.674849,42.19891]}},{"type":"Feature","properties":{"osm_id":"8687405418","fclass":"atm","name":"ATM","banka":"E panjohur","komuna":"Prizren"},"geometry":{"type":"Point","coordinates":[20.741783,42.209285]}},{"type":"Feature","properties":{"osm_id":"8744940010","fclass":"atm","name":"ATM - NLB Banka","banka":"NLB Banka","komuna":"Prishtinë"},"geometry":{"type":"Point","coordinates":[21.160844,42.664738]}},{"type":"Feature","properties":{"osm_id":"8848196807","fclass":"atm","name":"ATM","banka":"E panjohur","komuna":"Istog"},"geometry":{"type":"Point","coordinates":[20.48811,42.781772]}},{"type":"Feature","properties":{"osm_id":"9008557109","fclass":"atm","name":"ATM - TEB","banka":"TEB","komuna":"Pejë"},"geometry":{"type":"Point","coordinates":[20.288929,42.659381]}},{"type":"Feature","properties":{"osm_id":"9008557112","fclass":"atm","name":"ATM - Banka Ekonomike","banka":"Banka Ekonomike","komuna":"Pejë"},"geometry":{"type":"Point","coordinates":[20.288907,42.659389]}},{"type":"Feature","properties":{"osm_id":"9009992674","fclass":"atm","name":"ATM - ProCredit Bank","banka":"ProCredit Bank","komuna":"Pejë"},"geometry":{"type":"Point","coordinates":[20.300104,42.665184]}},{"type":"Feature","properties":{"osm_id":"9017873385","fclass":"atm","name":"ATM - NLB Banka","banka":"NLB Banka","komuna":"Pejë"},"geometry":{"type":"Point","coordinates":[20.294688,42.661763]}},{"type":"Feature","properties":{"osm_id":"9234045165","fclass":"atm","name":"ATM - TEB","banka":"TEB","komuna":"Prishtinë"},"geometry":{"type":"Point","coordinates":[21.152171,42.648999]}},{"type":"Feature","properties":{"osm_id":"9872128317","fclass":"atm","name":"ATM - TEB","banka":"TEB","komuna":"Fushë Kosovë"},"geometry":{"type":"Point","coordinates":[21.10044,42.641006]}},{"type":"Feature","properties":{"osm_id":"9949389317","fclass":"atm","name":"TEB ATM","banka":"TEB","komuna":"Gjilan"},"geometry":{"type":"Point","coordinates":[21.460718,42.467148]}},{"type":"Feature","properties":{"osm_id":"9951107919","fclass":"atm","name":"NLB atm","banka":"NLB Banka","komuna":"Gjilan"},"geometry":{"type":"Point","coordinates":[21.468731,42.462076]}},{"type":"Feature","properties":{"osm_id":"9951115717","fclass":"atm","name":"NLB atm","banka":"NLB Banka","komuna":"Gjilan"},"geometry":{"type":"Point","coordinates":[21.471601,42.457614]}}]}