{"type":"FeatureCollection","name":"bank","crs":{"type":"name","properties":{"name":"urn:ogc:def:crs:OGC:1.3:CRS84"}},"features":[{"type":"Feature","properties":{"osm_id":"420751260","fclass":"bank","name":"Raiffeisen Bank","banka":"Raiffeisen Bank","komuna":"Gjilan"},"geometry":{"type":"Point","coordinates":[21.467598,42.467324]}},{"type":"Feature","properties":{"osm_id":"603918498","fclass":"bank","name":"ProCredit Bank Kosova","banka":"ProCredit Bank","komuna":"Prishtinë"},"geometry":{"type":"Point","coordinates":[21.169152,42.670974]}},{"type":"Feature","properties":{"osm_id":"608676392","fclass":"bank","name":"ProCredit Bank Kosova","banka":"ProCredit Bank","komuna":"Prishtinë"},"geometry":{"type":"Point","coordinates":[21.158765,42.651393]}},{"type":"Feature","properties":{"osm_id":"628210627","fclass":"bank","name":"BPB Bank","banka":"Banka per Biznes (BPB)","komuna":"Prishtinë"},"geometry":{"type":"Point","coordinates":[21.164788,42.661032]}},{"type":"Feature","properties":{"osm_id":"990434981","fclass":"bank","name":"ProCredit Bank Kosova","banka":"ProCredit Bank","komuna":"Prishtinë"},"geometry":{"type":"Point","coordinates":[21.160214,42.658511]}},{"type":"Feature","properties":{"osm_id":"1132826404","fclass":"bank","name":"Raiffeisen","banka":"Raiffeisen Bank","komuna":"Prishtinë"},"geometry":{"type":"Point","coordinates":[21.165271,42.662083]}},{"type":"Feature","properties":{"osm_id":"1215709046","fclass":"bank","name":"NLB Banka","banka":"NLB Banka","komuna":"Prishtinë"},"geometry":{"type":"Point","coordinates":[21.159997,42.655265]}},{"type":"Feature","properties":{"osm_id":"1297712965","fclass":"bank","name":"T E B","banka":"TEB","komuna":"Klinë"},"geometry":{"type":"Point","coordinates":[20.577018,42.619291]}},{"type":"Feature","properties":{"osm_id":"1327204590","fclass":"bank","name":"TEB HQ","banka":"TEB","komuna":"Prishtinë"},"geometry":{"type":"Point","coordinates":[21.165158,42.662348]}},{"type":"Feature","properties":{"osm_id":"1327204979","fclass":"bank","name":"TEB Bank","banka":"TEB","komuna":"Prishtinë"},"geometry":{"type":"Point","coordinates":[21.168135,42.653791]}},{"type":"Feature","properties":{"osm_id":"1379511722","fclass":"bank","name":"Banka për Biznes - BPB","banka":"Banka per Biznes (BPB)","komuna":"Rahovec"},"geometry":{"type":"Point","coordinates":[20.656916,42.400884]}},{"type":"Feature","properties":{"osm_id":"1379511736","fclass":"bank","name":"Banka Ekonomike","banka":"Banka Ekonomike","komuna":"Rahovec"},"geometry":{"type":"Point","coordinates":[20.652805,42.399625]}},{"type":"Feature","properties":{"osm_id":"1379511791","fclass":"bank","name":"Raiffeisen Bank Kosovo","banka":"Raiffeisen Bank","komuna":"Rahovec"},"geometry":{"type":"Point","coordinates":[20.652178,42.400472]}},{"type":"Feature","properties":{"osm_id":"1558181057","fclass":"bank","name":"ProCredit Bank Kosova","banka":"ProCredit Bank","komuna":"Mitrovicë"},"geometry":{"type":"Point","coordinates":[20.866279,42.889562]}},{"type":"Feature","properties":{"osm_id":"1561445295","fclass":"bank","name":"AFK","banka":"AFK","komuna":"Mitrovicë"},"geometry":{"type":"Point","coordinates":[20.865624,42.882319]}},{"type":"Feature","properties":{"osm_id":"1603932403","fclass":"bank","name":"Banka Ekonomike","banka":"Banka Ekonomike","komuna":"Mitrovicë"},"geometry":{"type":"Point","coordinates":[20.866991,42.889228]}},{"type":"Feature","properties":{"osm_id":"1603932434","fclass":"bank","name":"Western Union","banka":"Western Union","komuna":"Mitrovicë"},"geometry":{"type":"Point","coordinates":[20.867045,42.88906]}},{"type":"Feature","properties":{"osm_id":"1636610857","fclass":"bank","name":"NLB Banka","banka":"NLB Banka","komuna":"Kaçanik"},"geometry":{"type":"Point","coordinates":[21.258193,42.229144]}},{"type":"Feature","properties":{"osm_id":"1650188034","fclass":"bank","name":"ProCredit Bank Kosova","banka":"ProCredit Bank","komuna":"Prizren"},"geometry":{"type":"Point","coordinates":[20.72668,42.220485]}},{"type":"Feature","properties":{"osm_id":"1662450996","fclass":"bank","name":"TEB Bank","banka":"TEB","komuna":"Prizren"},"geometry":{"type":"Point","coordinates":[20.736278,42.209619]}},{"type":"Feature","properties":{"osm_id":"1662453428","fclass":"bank","name":"ProCredit Bank Kosova","banka":"ProCredit Bank","komuna":"Prizren"},"geometry":{"type":"Point","coordinates":[20.737748,42.21573]}},{"type":"Feature","properties":{"osm_id":"1706519689","fclass":"bank","name":"Raiffeisen Bank Kosovo","banka":"Raiffeisen Bank","komuna":"Pejë"},"geometry":{"type":"Point","coordinates":[20.291974,42.659492]}},{"type":"Feature","properties":{"osm_id":"1903081413","fclass":"bank","name":"Raiffeisen Bank Kosovo","banka":"Raiffeisen Bank","komuna":"Klinë"},"geometry":{"type":"Point","coordinates":[20.575641,42.618986]}},{"type":"Feature","properties":{"osm_id":"1923973325","fclass":"bank","name":"ProCredit Bank Kosova","banka":"ProCredit Bank","komuna":"Klinë"},"geometry":{"type":"Point","coordinates":[20.575803,42.617024]}},{"type":"Feature","properties":{"osm_id":"2039583897","fclass":"bank","name":"TEB Main Office","banka":"TEB","komuna":"Prizren"},"geometry":{"type":"Point","coordinates":[20.72722,42.208812]}},{"type":"Feature","properties":{"osm_id":"2153344202","fclass":"bank","name":"Raiffeisen Bank","banka":"Raiffeisen Bank","komuna":"Prishtinë"},"geometry":{"type":"Point","coordinates":[21.174295,42.655944]}},{"type":"Feature","properties":{"osm_id":"2162845821","fclass":"bank","name":"Union Western","banka":"Union Western","komuna":"Prishtinë"},"geometry":{"type":"Point","coordinates":[21.162441,42.648399]}},{"type":"Feature","properties":{"osm_id":"2163812450","fclass":"bank","name":"ProCredit Bank Kosova","banka":"ProCredit Bank","komuna":"Prishtinë"},"geometry":{"type":"Point","coordinates":[21.173865,42.667052]}},{"type":"Feature","properties":{"osm_id":"2163812462","fclass":"bank","name":"Raiffeisen Bank Kosovo","banka":"Raiffeisen Bank","komuna":"Prishtinë"},"geometry":{"type":"Point","coordinates":[21.168246,42.6674]}},{"type":"Feature","properties":{"osm_id":"2164122535","fclass":"bank","name":"Raiffeisen Leasing Kosovo LLC","banka":"Raiffeisen Bank","komuna":"Prishtinë"},"geometry":{"type":"Point","coordinates":[21.160518,42.665654]}},{"type":"Feature","properties":{"osm_id":"2164122562","fclass":"bank","name":"Vllesa Co Ria-Transfer Parash","banka":"Vllesa Co Ria-Transfer Parash","komuna":"Prishtinë"},"geometry":{"type":"Point","coordinates":[21.160346,42.664033]}},{"type":"Feature","properties":{"osm_id":"2185508850","fclass":"bank","name":"Banka Qendrore e Kosoves","banka":"Banka Qendrore e Kosoves","komuna":"Prishtinë"},"geometry":{"type":"Point","coordinates":[21.158297,42.660194]}},{"type":"Feature","properties":{"osm_id":"2187298301","fclass":"bank","name":"Grameen Trust","banka":"Grameen Trust","komuna":"Prishtinë"},"geometry":{"type":"Point","coordinates":[21.153547,42.666969]}},{"type":"Feature","properties":{"osm_id":"2310343962","fclass":"bank","name":"ProCredit Bank Kosova","banka":"ProCredit Bank","komuna":"Gjakovë"},"geometry":{"type":"Point","coordinates":[20.428728,42.383748]}},{"type":"Feature","properties":{"osm_id":"2310793976","fclass":"bank","name":"Raiffeisen Bank Kosovo","banka":"Raiffeisen Bank","komuna":"Gjakovë"},"geometry":{"type":"Point","coordinates":[20.435964,42.373162]}},{"type":"Feature","properties":{"osm_id":"2311109555","fclass":"bank","name":"Banka Ekonomike","banka":"Banka Ekonomike","komuna":"Gjakovë"},"geometry":{"type":"Point","coordinates":[20.436037,42.372939]}},{"type":"Feature","properties":{"osm_id":"2494110879","fclass":"bank","name":"Western Union","banka":"Western Union","komuna":"Junik"},"geometry":{"type":"Point","coordinates":[20.277217,42.47631]}},{"type":"Feature","properties":{"osm_id":"2543386032","fclass":"bank","name":"NLB Banka","banka":"NLB Banka","komuna":"Mitrovicë"},"geometry":{"type":"Point","coordinates":[20.86811,42.889015]}},{"type":"Feature","properties":{"osm_id":"2544800418","fclass":"bank","name":"Plus Bar","banka":"Plus Bar","komuna":"Mitrovicë"},"geometry":{"type":"Point","coordinates":[20.868614,42.88934]}},{"type":"Feature","properties":{"osm_id":"2560050264","fclass":"bank","name":"ProCredit Bank Kosova","banka":"ProCredit Bank","komuna":"Mitrovicë Veriore"},"geometry":{"type":"Point","coordinates":[20.862558,42.898836]}},{"type":"Feature","properties":{"osm_id":"3042865497","fclass":"bank","name":"NLB Banka","banka":"NLB Banka","komuna":"Prizren"},"geometry":{"type":"Point","coordinates":[20.728842,42.214677]}},{"type":"Feature","properties":{"osm_id":"4109488717","fclass":"bank","name":"TEB Bank","banka":"TEB","komuna":"Prishtinë"},"geometry":{"type":"Point","coordinates":[21.159445,42.661767]}},{"type":"Feature","properties":{"osm_id":"4178048708","fclass":"bank","name":"","banka":"E panjohur","komuna":"Prizren"},"geometry":{"type":"Point","coordinates":[20.731142,42.213125]}},{"type":"Feature","properties":{"osm_id":"4183623520","fclass":"bank","name":"Raiffeisen Bank Kosovo","banka":"Raiffeisen Bank","komuna":"Graçanicë"},"geometry":{"type":"Point","coordinates":[21.191295,42.601993]}},{"type":"Feature","properties":{"osm_id":"4225658715","fclass":"bank","name":"","banka":"E panjohur","komuna":"Prishtinë"},"geometry":{"type":"Point","coordinates":[21.150436,42.649858]}},{"type":"Feature","properties":{"osm_id":"4314745746","fclass":"bank","name":"NLB Banka","banka":"NLB Banka","komuna":"Prishtinë"},"geometry":{"type":"Point","coordinates":[21.16729,42.65051]}},{"type":"Feature","properties":{"osm_id":"4361636158","fclass":"bank","name":"ProCredit Bank Kosova","banka":"ProCredit Bank","komuna":"Prishtinë"},"geometry":{"type":"Point","coordinates":[21.150521,42.653896]}},{"type":"Feature","properties":{"osm_id":"4374281493","fclass":"bank","name":"AFK","banka":"AFK","komuna":"Prishtinë"},"geometry":{"type":"Point","coordinates":[21.16807,42.656817]}},{"type":"Feature","properties":{"osm_id":"4391620191","fclass":"bank","name":"","banka":"E panjohur","komuna":"Vushtrri"},"geometry":{"type":"Point","coordinates":[20.982906,42.814956]}},{"type":"Feature","properties":{"osm_id":"4414501989","fclass":"bank","name":"Raffeisenbank","banka":"Raffeisenbank","komuna":"Deçan"},"geometry":{"type":"Point","coordinates":[20.289998,42.543957]}},{"type":"Feature","properties":{"osm_id":"4420356089","fclass":"bank","name":"ProCredit Bank Kosova","banka":"ProCredit Bank","komuna":"Prishtinë"},"geometry":{"type":"Point","coordinates":[21.16369,42.665875]}},{"type":"Feature","properties":{"osm_id":"4424369691","fclass":"bank","name":"NLB Banka HQ","banka":"NLB Banka","komuna":"Prishtinë"},"geometry":{"type":"Point","coordinates":[21.153278,42.657968]}},{"type":"Feature","properties":{"osm_id":"4426430931","fclass":"bank","name":"Finca","banka":"Finca","komuna":"Shtërpcë"},"geometry":{"type":"Point","coordinates":[21.022816,42.238169]}},{"type":"Feature","properties":{"osm_id":"4432265311","fclass":"bank","name":"AFK","banka":"AFK","komuna":"Graçanicë"},"geometry":{"type":"Point","coordinates":[21.191138,42.60219]}},{"type":"Feature","properties":{"osm_id":"4436458089","fclass":"bank","name":"BKT","banka":"BKT","komuna":"Prishtinë"},"geometry":{"type":"Point","coordinates":[21.162256,42.662157]}},{"type":"Feature","properties":{"osm_id":"4440582589","fclass":"bank","name":"NLB Banka","banka":"NLB Banka","komuna":"Prishtinë"},"geometry":{"type":"Point","coordinates":[21.161484,42.661982]}},{"type":"Feature","properties":{"osm_id":"4443972691","fclass":"bank","name":"TEB Bank Dega Premium","banka":"TEB","komuna":"Prishtinë"},"geometry":{"type":"Point","coordinates":[21.161311,42.659927]}},{"type":"Feature","properties":{"osm_id":"4445885989","fclass":"bank","name":"BPB","banka":"Banka per Biznes (BPB)","komuna":"Prishtinë"},"geometry":{"type":"Point","coordinates":[21.161422,42.660042]}},{"type":"Feature","properties":{"osm_id":"4459642190","fclass":"bank","name":"BKT","banka":"BKT","komuna":"Prishtinë"},"geometry":{"type":"Point","coordinates":[21.168234,42.653631]}},{"type":"Feature","properties":{"osm_id":"4460577090","fclass":"bank","name":"BPB","banka":"Banka per Biznes (BPB)","komuna":"Prishtinë"},"geometry":{"type":"Point","coordinates":[21.162344,42.665595]}},{"type":"Feature","properties":{"osm_id":"4460620789","fclass":"bank","name":"Isbank","banka":"Isbank","komuna":"Prishtinë"},"geometry":{"type":"Point","coordinates":[21.162252,42.665591]}},{"type":"Feature","properties":{"osm_id":"4471127789","fclass":"bank","name":"Ziraat Bank","banka":"Ziraat Bank","komuna":"Prishtinë"},"geometry":{"type":"Point","coordinates":[21.155359,42.658062]}},{"type":"Feature","properties":{"osm_id":"4471413090","fclass":"bank","name":"BKT Zyra Qendrore","banka":"BKT","komuna":"Prishtinë"},"geometry":{"type":"Point","coordinates":[21.15612,42.658464]}},{"type":"Feature","properties":{"osm_id":"4491319560","fclass":"bank","name":"NLB Banka","banka":"NLB Banka","komuna":"Gjakovë"},"geometry":{"type":"Point","coordinates":[20.430807,42.382673]}},{"type":"Feature","properties":{"osm_id":"4570093389","fclass":"bank","name":"Banka Ekonomike","banka":"Banka Ekonomike","komuna":"Prishtinë"},"geometry":{"type":"Point","coordinates":[21.159065,42.654234]}},{"type":"Feature","properties":{"osm_id":"4682342235","fclass":"bank","name":"TEB Bank","banka":"TEB","komuna":"Lipjan"},"geometry":{"type":"Point","coordinates":[21.121789,42.518546]}},{"type":"Feature","properties":{"osm_id":"4682342654","fclass":"bank","name":"Raiffeisen Bank Kosovo","banka":"Raiffeisen Bank","komuna":"Lipjan"},"geometry":{"type":"Point","coordinates":[21.122131,42.51923]}},{"type":"Feature","properties":{"osm_id":"4682343399","fclass":"bank","name":"","banka":"E panjohur","komuna":"Lipjan"},"geometry":{"type":"Point","coordinates":[21.122629,42.51915]}},{"type":"Feature","properties":{"osm_id":"4688766092","fclass":"bank","name":"N.P.Sh Euro-Kembimi","banka":"N.P.Sh Euro-Kembimi","komuna":"Gjilan"},"geometry":{"type":"Point","coordinates":[21.4724,42.467352]}},{"type":"Feature","properties":{"osm_id":"4692190470","fclass":"bank","name":"ProCredit Bank Kosova","banka":"ProCredit Bank","komuna":"Dragash"},"geometry":{"type":"Point","coordinates":[20.653697,42.062112]}},{"type":"Feature","properties":{"osm_id":"4692190474","fclass":"bank","name":"Raiffeisen Bank Kosovo","banka":"Raiffeisen Bank","komuna":"Dragash"},"geometry":{"type":"Point","coordinates":[20.654584,42.061855]}},{"type":"Feature","properties":{"osm_id":"4701830090","fclass":"bank","name":"","banka":"E panjohur","komuna":"Rahovec"},"geometry":{"type":"Point","coordinates":[20.651205,42.397991]}},{"type":"Feature","properties":{"osm_id":"4708489430","fclass":"bank","name":"Capital - Deçan","banka":"Capital - Deçan","komuna":"Deçan"},"geometry":{"type":"Point","coordinates":[20.289099,42.539355]}},{"type":"Feature","properties":{"osm_id":"4708489431","fclass":"bank","name":"Moneygram Deçan","banka":"Moneygram Deçan","komuna":"Deçan"},"geometry":{"type":"Point","coordinates":[20.288561,42.540151]}},{"type":"Feature","properties":{"osm_id":"4728343937","fclass":"bank","name":"Banka Ekonomike","banka":"Banka Ekonomike","komuna":"Skenderaj"},"geometry":{"type":"Point","coordinates":[20.789294,42.74817]}},{"type":"Feature","properties":{"osm_id":"4728349844","fclass":"bank","name":"Banka Kombetare Tregtare (BKT)","banka":"BKT","komuna":"Skenderaj"},"geometry":{"type":"Point","coordinates":[20.789278,42.748348]}},{"type":"Feature","properties":{"osm_id":"4728353579","fclass":"bank","name":"TEB Bank","banka":"TEB","komuna":"Skenderaj"},"geometry":{"type":"Point","coordinates":[20.788953,42.748297]}},{"type":"Feature","properties":{"osm_id":"4728355248","fclass":"bank","name":"Raiffeisen Bank","banka":"Raiffeisen Bank","komuna":"Skenderaj"},"geometry":{"type":"Point","coordinates":[20.789453,42.748407]}},{"type":"Feature","properties":{"osm_id":"4738900623","fclass":"bank","name":"Raiffeisen Bank Kosovo","banka":"Raiffeisen Bank","komuna":"Ferizaj"},"geometry":{"type":"Point","coordinates":[21.148328,42.37113]}},{"type":"Feature","properties":{"osm_id":"4738900624","fclass":"bank","name":"TEB Banka Kosova","banka":"TEB","komuna":"Ferizaj"},"geometry":{"type":"Point","coordinates":[21.148482,42.371189]}},{"type":"Feature","properties":{"osm_id":"4836201618","fclass":"bank","name":"BE - Banka Ekonomike e Kosoves","banka":"Banka Ekonomike","komuna":"Gjakovë"},"geometry":{"type":"Point","coordinates":[20.428925,42.383734]}},{"type":"Feature","properties":{"osm_id":"4836206761","fclass":"bank","name":"FINCA Kosova","banka":"FINCA Kosova","komuna":"Gjakovë"},"geometry":{"type":"Point","coordinates":[20.42792,42.384735]}},{"type":"Feature","properties":{"osm_id":"4836210577","fclass":"bank","name":"NLB Banka","banka":"NLB Banka","komuna":"Gjakovë"},"geometry":{"type":"Point","coordinates":[20.43044,42.3833]}},{"type":"Feature","properties":{"osm_id":"4836214462","fclass":"bank","name":"TEB Bank","banka":"TEB","komuna":"Gjakovë"},"geometry":{"type":"Point","coordinates":[20.427818,42.384248]}},{"type":"Feature","properties":{"osm_id":"4836220825","fclass":"bank","name":"BKT - Banka Kombetare Tregtare","banka":"BKT","komuna":"Gjakovë"},"geometry":{"type":"Point","coordinates":[20.431849,42.377267]}},{"type":"Feature","properties":{"osm_id":"4836222949","fclass":"bank","name":"AFK - Institucion Mikro Financiar","banka":"AFK","komuna":"Gjakovë"},"geometry":{"type":"Point","coordinates":[20.431192,42.379081]}},{"type":"Feature","properties":{"osm_id":"4866082121","fclass":"bank","name":"KEP Banka","banka":"KEP Trust","komuna":"Prishtinë"},"geometry":{"type":"Point","coordinates":[21.157104,42.655668]}},{"type":"Feature","properties":{"osm_id":"4922620521","fclass":"bank","name":"Banka Kombetare Tregtare","banka":"BKT","komuna":"Gjakovë"},"geometry":{"type":"Point","coordinates":[20.431836,42.377291]}},{"type":"Feature","properties":{"osm_id":"4928734421","fclass":"bank","name":"NLB Prishtina","banka":"NLB Banka","komuna":"Prishtinë"},"geometry":{"type":"Point","coordinates":[21.16191,42.670913]}},{"type":"Feature","properties":{"osm_id":"4959823422","fclass":"bank","name":"Western Unoin / Union Net","banka":"Western Unoin / Union Net","komuna":"Podujevë"},"geometry":{"type":"Point","coordinates":[21.19142,42.909383]}},{"type":"Feature","properties":{"osm_id":"4959823423","fclass":"bank","name":"Western Union","banka":"Western Union","komuna":"Podujevë"},"geometry":{"type":"Point","coordinates":[21.191499,42.909325]}},{"type":"Feature","properties":{"osm_id":"4974789709","fclass":"bank","name":"Banka Ekonomike","banka":"Banka Ekonomike","komuna":"Ferizaj"},"geometry":{"type":"Point","coordinates":[21.149351,42.370736]}},{"type":"Feature","properties":{"osm_id":"4984280923","fclass":"bank","name":"TEB Bank","banka":"TEB","komuna":"Prishtinë"},"geometry":{"type":"Point","coordinates":[21.159839,42.655085]}},{"type":"Feature","properties":{"osm_id":"5132918946","fclass":"bank","name":"Western Union","banka":"Western Union","komuna":"Vushtrri"},"geometry":{"type":"Point","coordinates":[20.968416,42.821756]}},{"type":"Feature","properties":{"osm_id":"5141211221","fclass":"bank","name":"Pro Credit Bank","banka":"ProCredit Bank","komuna":"Graçanicë"},"geometry":{"type":"Point","coordinates":[21.191077,42.602135]}},{"type":"Feature","properties":{"osm_id":"5220066322","fclass":"bank","name":"Raiffeisen Bank","banka":"Raiffeisen Bank","komuna":"Prizren"},"geometry":{"type":"Point","coordinates":[20.743097,42.217533]}},{"type":"Feature","properties":{"osm_id":"5302759321","fclass":"bank","name":"Raiffeisen Bank","banka":"Raiffeisen Bank","komuna":"Gjilan"},"geometry":{"type":"Point","coordinates":[21.467793,42.467044]}},{"type":"Feature","properties":{"osm_id":"5302759322","fclass":"bank","name":"Banka Ekonomike","banka":"Banka Ekonomike","komuna":"Gjilan"},"geometry":{"type":"Point","coordinates":[21.467737,42.467104]}},{"type":"Feature","properties":{"osm_id":"5302763021","fclass":"bank","name":"NLB Banka","banka":"NLB Banka","komuna":"Gjilan"},"geometry":{"type":"Point","coordinates":[21.467766,42.467076]}},{"type":"Feature","properties":{"osm_id":"5410987221","fclass":"bank","name":"raiffaisen bank","banka":"Raiffeisen Bank","komuna":"Pejë"},"geometry":{"type":"Point","coordinates":[20.303777,42.660487]}},{"type":"Feature","properties":{"osm_id":"5566999622","fclass":"bank","name":"Teb Bank","banka":"TEB","komuna":"Prishtinë"},"geometry":{"type":"Point","coordinates":[21.17237,42.648202]}},{"type":"Feature","properties":{"osm_id":"5683302680","fclass":"bank","name":"NLB Komercijalna banka","banka":"NLB Banka","komuna":"Zveçan"},"geometry":{"type":"Point","coordinates":[20.840283,42.909199]}},{"type":"Feature","properties":{"osm_id":"5687609229","fclass":"bank","name":"Raiffeisen Bank","banka":"Raiffeisen Bank","komuna":"Rahovec"},"geometry":{"type":"Point","coordinates":[20.653258,42.39935]}},{"type":"Feature","properties":{"osm_id":"5687609230","fclass":"bank","name":"TEB Bank","banka":"TEB","komuna":"Rahovec"},"geometry":{"type":"Point","coordinates":[20.653072,42.399465]}},{"type":"Feature","properties":{"osm_id":"5744935023","fclass":"bank","name":"ProCredit Bank","banka":"ProCredit Bank","komuna":"Therandë"},"geometry":{"type":"Point","coordinates":[20.825684,42.358378]}},{"type":"Feature","properties":{"osm_id":"5749308321","fclass":"bank","name":"TEB Bank","banka":"TEB","komuna":"Prishtinë"},"geometry":{"type":"Point","coordinates":[21.155464,42.655344]}},{"type":"Feature","properties":{"osm_id":"5879600785","fclass":"bank","name":"Kijevë","banka":"Kijevë","komuna":"Malishevë"},"geometry":{"type":"Point","coordinates":[20.711389,42.580315]}},{"type":"Feature","properties":{"osm_id":"5935286600","fclass":"bank","name":"Western Union","banka":"Western Union","komuna":"Prishtinë"},"geometry":{"type":"Point","coordinates":[21.15209,42.632263]}},{"type":"Feature","properties":{"osm_id":"6015238152","fclass":"bank","name":"Western Union","banka":"Western Union","komuna":"Lipjan"},"geometry":{"type":"Point","coordinates":[21.122782,42.51924]}},{"type":"Feature","properties":{"osm_id":"6015239650","fclass":"bank","name":"BKT Lipjan","banka":"BKT","komuna":"Lipjan"},"geometry":{"type":"Point","coordinates":[21.12217,42.518728]}},{"type":"Feature","properties":{"osm_id":"6074690785","fclass":"bank","name":"KEP","banka":"KEP Trust","komuna":"Skenderaj"},"geometry":{"type":"Point","coordinates":[20.789504,42.746969]}},{"type":"Feature","properties":{"osm_id":"6142175060","fclass":"bank","name":"Banka Ekonomike","banka":"Banka Ekonomike","komuna":"Gjilan"},"geometry":{"type":"Point","coordinates":[21.477688,42.468976]}},{"type":"Feature","properties":{"osm_id":"6173820785","fclass":"bank","name":"Pro credit bank","banka":"ProCredit Bank","komuna":"Prizren"},"geometry":{"type":"Point","coordinates":[20.725227,42.221175]}},{"type":"Feature","properties":{"osm_id":"6378872180","fclass":"bank","name":"Banka Ekonomike","banka":"Banka Ekonomike","komuna":"Viti"},"geometry":{"type":"Point","coordinates":[21.35698,42.318657]}},{"type":"Feature","properties":{"osm_id":"6378873519","fclass":"bank","name":"KRK","banka":"KRK","komuna":"Viti"},"geometry":{"type":"Point","coordinates":[21.357018,42.319643]}},{"type":"Feature","properties":{"osm_id":"6415229340","fclass":"bank","name":"ProCredit Bank","banka":"ProCredit Bank","komuna":"Gjilan"},"geometry":{"type":"Point","coordinates":[21.46828,42.462823]}},{"type":"Feature","properties":{"osm_id":"6415229495","fclass":"bank","name":"Banka Private e Biznesit \"BPB","banka":"Banka per Biznes (BPB)","komuna":"Gjilan"},"geometry":{"type":"Point","coordinates":[21.471278,42.461384]}},{"type":"Feature","properties":{"osm_id":"6647289587","fclass":"bank","name":"","banka":"E panjohur","komuna":"Ferizaj"},"geometry":{"type":"Point","coordinates":[21.149405,42.369453]}},{"type":"Feature","properties":{"osm_id":"6657223835","fclass":"bank","name":"Raiffeisenbank","banka":"Raiffeisen Bank","komuna":"Mitrovicë"},"geometry":{"type":"Point","coordinates":[20.869692,42.887768]}},{"type":"Feature","properties":{"osm_id":"6708186589","fclass":"bank","name":"Raiffeisen Bank","banka":"Raiffeisen Bank","komuna":"Gjakovë"},"geometry":{"type":"Point","coordinates":[20.434857,42.376624]}},{"type":"Feature","properties":{"osm_id":"6815508688","fclass":"bank","name":"Poštanska Štedionica","banka":"Poštanska Štedionica","komuna":"Leposaviq"},"geometry":{"type":"Point","coordinates":[20.801363,43.101114]}},{"type":"Feature","properties":{"osm_id":"6864928786","fclass":"bank","name":"","banka":"E panjohur","komuna":"Prishtinë"},"geometry":{"type":"Point","coordinates":[21.156239,42.658507]}},{"type":"Feature","properties":{"osm_id":"6906656389","fclass":"bank","name":"Monego","banka":"Monego","komuna":"Prishtinë"},"geometry":{"type":"Point","coordinates":[21.155522,42.655874]}},{"type":"Feature","properties":{"osm_id":"6934293785","fclass":"bank","name":"Banka Kombetare Tregtare","banka":"BKT","komuna":"Gjakovë"},"geometry":{"type":"Point","coordinates":[20.428407,42.384789]}},{"type":"Feature","properties":{"osm_id":"6934293786","fclass":"bank","name":"BPB","banka":"Banka per Biznes (BPB)","komuna":"Gjakovë"},"geometry":{"type":"Point","coordinates":[20.431041,42.385829]}},{"type":"Feature","properties":{"osm_id":"6975110785","fclass":"bank","name":"","banka":"E panjohur","komuna":"Prishtinë"},"geometry":{"type":"Point","coordinates":[21.173794,42.655723]}},{"type":"Feature","properties":{"osm_id":"6979781747","fclass":"bank","name":"NLB Bank","banka":"NLB Banka","komuna":"Podujevë"},"geometry":{"type":"Point","coordinates":[21.189848,42.911472]}},{"type":"Feature","properties":{"osm_id":"6982598285","fclass":"bank","name":"Komercijalna Banka","banka":"Komercijalna Banka","komuna":"Leposaviq"},"geometry":{"type":"Point","coordinates":[20.803973,43.101621]}},{"type":"Feature","properties":{"osm_id":"6982602286","fclass":"bank","name":"Narodna Banka Srbije","banka":"Narodna Banka Srbije","komuna":"Leposaviq"},"geometry":{"type":"Point","coordinates":[20.80279,43.101657]}},{"type":"Feature","properties":{"osm_id":"7050409285","fclass":"bank","name":"BpB - Banka per Biznes","banka":"Banka per Biznes (BPB)","komuna":"Prishtinë"},"geometry":{"type":"Point","coordinates":[21.15334,42.65846]}},{"type":"Feature","properties":{"osm_id":"7139705685","fclass":"bank","name":"Western Union","banka":"Western Union","komuna":"Pejë"},"geometry":{"type":"Point","coordinates":[20.292879,42.655273]}},{"type":"Feature","properties":{"osm_id":"7315096026","fclass":"bank","name":"NLB Bank","banka":"NLB Banka","komuna":"Kastriot"},"geometry":{"type":"Point","coordinates":[21.068851,42.686167]}},{"type":"Feature","properties":{"osm_id":"7315096032","fclass":"bank","name":"Banka Ekonomike","banka":"Banka Ekonomike","komuna":"Kastriot"},"geometry":{"type":"Point","coordinates":[21.068678,42.686254]}},{"type":"Feature","properties":{"osm_id":"7316057918","fclass":"bank","name":"","banka":"E panjohur","komuna":"Fushë Kosovë"},"geometry":{"type":"Point","coordinates":[21.098637,42.639437]}},{"type":"Feature","properties":{"osm_id":"7316057938","fclass":"bank","name":"Finca BANK","banka":"Finca BANK","komuna":"Fushë Kosovë"},"geometry":{"type":"Point","coordinates":[21.097849,42.639212]}},{"type":"Feature","properties":{"osm_id":"7316057942","fclass":"bank","name":"BPB Bank","banka":"Banka per Biznes (BPB)","komuna":"Fushë Kosovë"},"geometry":{"type":"Point","coordinates":[21.097657,42.639069]}},{"type":"Feature","properties":{"osm_id":"7316058009","fclass":"bank","name":"Banka Ekonomike","banka":"Banka Ekonomike","komuna":"Fushë Kosovë"},"geometry":{"type":"Point","coordinates":[21.093836,42.637948]}},{"type":"Feature","properties":{"osm_id":"7316058021","fclass":"bank","name":"BKT","banka":"BKT","komuna":"Fushë Kosovë"},"geometry":{"type":"Point","coordinates":[21.093306,42.637796]}},{"type":"Feature","properties":{"osm_id":"7316058040","fclass":"bank","name":"TEB","banka":"TEB","komuna":"Fushë Kosovë"},"geometry":{"type":"Point","coordinates":[21.092559,42.637514]}},{"type":"Feature","properties":{"osm_id":"7321694125","fclass":"bank","name":"raiffeisen bank","banka":"Raiffeisen Bank","komuna":"Kastriot"},"geometry":{"type":"Point","coordinates":[21.068556,42.686304]}},{"type":"Feature","properties":{"osm_id":"7329071285","fclass":"bank","name":"BPB","banka":"Banka per Biznes (BPB)","komuna":"Lipjan"},"geometry":{"type":"Point","coordinates":[21.123341,42.519548]}},{"type":"Feature","properties":{"osm_id":"7329071286","fclass":"bank","name":"Ria-Vllesa","banka":"Ria-Vllesa","komuna":"Lipjan"},"geometry":{"type":"Point","coordinates":[21.123408,42.519678]}},{"type":"Feature","properties":{"osm_id":"7329200953","fclass":"bank","name":"Finca","banka":"Finca","komuna":"Skenderaj"},"geometry":{"type":"Point","coordinates":[20.789497,42.7469]}},{"type":"Feature","properties":{"osm_id":"7340319601","fclass":"bank","name":"ProCredit Bank","banka":"ProCredit Bank","komuna":"Istog"},"geometry":{"type":"Point","coordinates":[20.489177,42.781651]}},{"type":"Feature","properties":{"osm_id":"7340319609","fclass":"bank","name":"KEP Trust","banka":"KEP Trust","komuna":"Istog"},"geometry":{"type":"Point","coordinates":[20.488343,42.781601]}},{"type":"Feature","properties":{"osm_id":"7340319639","fclass":"bank","name":"BPB","banka":"Banka per Biznes (BPB)","komuna":"Istog"},"geometry":{"type":"Point","coordinates":[20.486927,42.781853]}},{"type":"Feature","properties":{"osm_id":"7340319645","fclass":"bank","name":"Raiffeisen Bank","banka":"Raiffeisen Bank","komuna":"Istog"},"geometry":{"type":"Point","coordinates":[20.486415,42.781652]}},{"type":"Feature","properties":{"osm_id":"7340319651","fclass":"bank","name":"NLB Bank","banka":"NLB Banka","komuna":"Istog"},"geometry":{"type":"Point","coordinates":[20.48624,42.78184]}},{"type":"Feature","properties":{"osm_id":"7340470245","fclass":"bank","name":"Western Union","banka":"Western Union","komuna":"Istog"},"geometry":{"type":"Point","coordinates":[20.486473,42.780907]}},{"type":"Feature","properties":{"osm_id":"7340485507","fclass":"bank","name":"Banka Ekonomike","banka":"Banka Ekonomike","komuna":"Istog"},"geometry":{"type":"Point","coordinates":[20.487069,42.779662]}},{"type":"Feature","properties":{"osm_id":"7341668595","fclass":"bank","name":"FINCA","banka":"FINCA","komuna":"Istog"},"geometry":{"type":"Point","coordinates":[20.488054,42.778823]}},{"type":"Feature","properties":{"osm_id":"7342894232","fclass":"bank","name":"Finca","banka":"Finca","komuna":"Vushtrri"},"geometry":{"type":"Point","coordinates":[20.9654,42.823872]}},{"type":"Feature","properties":{"osm_id":"7357005241","fclass":"bank","name":"NLB Bank","banka":"NLB Banka","komuna":"Kaçanik"},"geometry":{"type":"Point","coordinates":[21.25724,42.228062]}},{"type":"Feature","properties":{"osm_id":"7366572235","fclass":"bank","name":"Raiffeisen Bank Kosovo","banka":"Raiffeisen Bank","komuna":"Fushë Kosovë"},"geometry":{"type":"Point","coordinates":[21.095252,42.638353]}},{"type":"Feature","properties":{"osm_id":"7375771096","fclass":"bank","name":"ISBANK","banka":"ISBANK","komuna":"Prishtinë"},"geometry":{"type":"Point","coordinates":[21.153486,42.658198]}},{"type":"Feature","properties":{"osm_id":"7375795216","fclass":"bank","name":"Raiffeisen Bank","banka":"Raiffeisen Bank","komuna":"Prishtinë"},"geometry":{"type":"Point","coordinates":[21.154296,42.656454]}},{"type":"Feature","properties":{"osm_id":"7631876385","fclass":"bank","name":"Banka Komerciale","banka":"Banka Komerciale","komuna":"Shtërpcë"},"geometry":{"type":"Point","coordinates":[21.027417,42.241442]}},{"type":"Feature","properties":{"osm_id":"7667762085","fclass":"bank","name":"BPB - Banka Private e Biznesit","banka":"Banka per Biznes (BPB)","komuna":"Mitrovicë"},"geometry":{"type":"Point","coordinates":[20.870425,42.888345]}},{"type":"Feature","properties":{"osm_id":"7705705485","fclass":"bank","name":"NLB","banka":"NLB Banka","komuna":"Skenderaj"},"geometry":{"type":"Point","coordinates":[20.789494,42.747056]}},{"type":"Feature","properties":{"osm_id":"7733839685","fclass":"bank","name":"","banka":"E panjohur","komuna":"Prishtinë"},"geometry":{"type":"Point","coordinates":[21.177176,42.658246]}},{"type":"Feature","properties":{"osm_id":"7846244685","fclass":"bank","name":"Raiffeisen Bank","banka":"Raiffeisen Bank","komuna":"Kamenicë"},"geometry":{"type":"Point","coordinates":[21.579343,42.578336]}},{"type":"Feature","properties":{"osm_id":"8272129577","fclass":"bank","name":"KRK-Bank","banka":"KRK-Bank","komuna":"Istog"},"geometry":{"type":"Point","coordinates":[20.486358,42.781848]}},{"type":"Feature","properties":{"osm_id":"8286236818","fclass":"bank","name":"Kembimore Euro-Kembimi B.I","banka":"Kembimore Euro-Kembimi B.I","komuna":"Gjilan"},"geometry":{"type":"Point","coordinates":[21.473539,42.446779]}},{"type":"Feature","properties":{"osm_id":"8439422659","fclass":"bank","name":"Raiffeisen Bank Kosovo","banka":"Raiffeisen Bank","komuna":"Prishtinë"},"geometry":{"type":"Point","coordinates":[21.157658,42.665338]}},{"type":"Feature","properties":{"osm_id":"8462555567","fclass":"bank","name":"BPB","banka":"Banka per Biznes (BPB)","komuna":"Klinë"},"geometry":{"type":"Point","coordinates":[20.577065,42.618996]}},{"type":"Feature","properties":{"osm_id":"8551573494","fclass":"bank","name":"Raiffeisen Bank","banka":"Raiffeisen Bank","komuna":"Malishevë"},"geometry":{"type":"Point","coordinates":[20.744326,42.483125]}},{"type":"Feature","properties":{"osm_id":"8551721310","fclass":"bank","name":"Teb Bank Malishevë","banka":"TEB","komuna":"Malishevë"},"geometry":{"type":"Point","coordinates":[20.744139,42.483231]}},{"type":"Feature","properties":{"osm_id":"8566968287","fclass":"bank","name":"Raiffeisen Bank","banka":"Raiffeisen Bank","komuna":"Hani I Elezit"},"geometry":{"type":"Point","coordinates":[21.29801,42.150748]}},{"type":"Feature","properties":{"osm_id":"8811006500","fclass":"bank","name":"Ziraat bank","banka":"Ziraat Bank","komuna":"Prizren"},"geometry":{"type":"Point","coordinates":[20.733685,42.210596]}},{"type":"Feature","properties":{"osm_id":"8817736906","fclass":"bank","name":"TEB","banka":"TEB","komuna":"Ferizaj"},"geometry":{"type":"Point","coordinates":[21.156898,42.373055]}},{"type":"Feature","properties":{"osm_id":"8817736907","fclass":"bank","name":"Banka Ekonomike","banka":"Banka Ekonomike","komuna":"Ferizaj"},"geometry":{"type":"Point","coordinates":[21.156307,42.372401]}},{"type":"Feature","properties":{"osm_id":"8827292779","fclass":"bank","name":"","banka":"E panjohur","komuna":"Istog"},"geometry":{"type":"Point","coordinates":[20.488106,42.781804]}},{"type":"Feature","properties":{"osm_id":"8833395906","fclass":"bank","name":"AFK","banka":"AFK","komuna":"Rahovec"},"geometry":{"type":"Point","coordinates":[20.652912,42.400208]}},{"type":"Feature","properties":{"osm_id":"8833439847","fclass":"bank","name":"NLB","banka":"NLB Banka","komuna":"Rahovec"},"geometry":{"type":"Point","coordinates":[20.653013,42.40028]}},{"type":"Feature","properties":{"osm_id":"8833450619","fclass":"bank","name":"Banka Ekonomike","banka":"Banka Ekonomike","komuna":"Rahovec"},"geometry":{"type":"Point","coordinates":[20.653794,42.39913]}},{"type":"Feature","properties":{"osm_id":"8910188917","fclass":"bank","name":"NLB Banka","banka":"NLB Banka","komuna":"Klinë"},"geometry":{"type":"Point","coordinates":[20.575818,42.61789]}},{"type":"Feature","properties":{"osm_id":"9007931785","fclass":"bank","name":"ProCredit Bank","banka":"ProCredit Bank","komuna":"Pejë"},"geometry":{"type":"Point","coordinates":[20.288259,42.659213]}},{"type":"Feature","properties":{"osm_id":"9008563819","fclass":"bank","name":"NLB Banka","banka":"NLB Banka","komuna":"Pejë"},"geometry":{"type":"Point","coordinates":[20.288964,42.660875]}},{"type":"Feature","properties":{"osm_id":"9009992666","fclass":"bank","name":"ProCredit Bank","banka":"ProCredit Bank","komuna":"Pejë"},"geometry":{"type":"Point","coordinates":[20.300035,42.665237]}},{"type":"Feature","properties":{"osm_id":"9017570857","fclass":"bank","name":"Ziraat Banka","banka":"Ziraat Bank","komuna":"Pejë"},"geometry":{"type":"Point","coordinates":[20.29198,42.660853]}},{"type":"Feature","properties":{"osm_id":"9017873415","fclass":"bank","name":"TEB","banka":"TEB","komuna":"Pejë"},"geometry":{"type":"Point","coordinates":[20.295549,42.662056]}},{"type":"Feature","properties":{"osm_id":"9023481017","fclass":"bank","name":"TEB","banka":"TEB","komuna":"Pejë"},"geometry":{"type":"Point","coordinates":[20.29228,42.659985]}},{"type":"Feature","properties":{"osm_id":"9023481018","fclass":"bank","name":"BPB","banka":"Banka per Biznes (BPB)","komuna":"Pejë"},"geometry":{"type":"Point","coordinates":[20.292246,42.660032]}},{"type":"Feature","properties":{"osm_id":"9023481019","fclass":"bank","name":"Ekonomike","banka":"Banka Ekonomike","komuna":"Pejë"},"geometry":{"type":"Point","coordinates":[20.292554,42.660221]}},{"type":"Feature","properties":{"osm_id":"9031321884","fclass":"bank","name":"Banka Ekonomike","banka":"Banka Ekonomike","komuna":"Deçan"},"geometry":{"type":"Point","coordinates":[20.28699,42.540106]}},{"type":"Feature","properties":{"osm_id":"9031681142","fclass":"bank","name":"NLB Banka","banka":"NLB Banka","komuna":"Deçan"},"geometry":{"type":"Point","coordinates":[20.286358,42.539952]}},{"type":"Feature","properties":{"osm_id":"9077947359","fclass":"bank","name":"TEB","banka":"TEB","komuna":"Graçanicë"},"geometry":{"type":"Point","coordinates":[21.130066,42.59861]}},{"type":"Feature","properties":{"osm_id":"9091313127","fclass":"bank","name":"BPB","banka":"Banka per Biznes (BPB)","komuna":"Pejë"},"geometry":{"type":"Point","coordinates":[20.292287,42.65996]}},{"type":"Feature","properties":{"osm_id":"9091314017","fclass":"bank","name":"Ziraat","banka":"Ziraat Bank","komuna":"Pejë"},"geometry":{"type":"Point","coordinates":[20.291996,42.660907]}},{"type":"Feature","properties":{"osm_id":"9103438723","fclass":"bank","name":"TEB","banka":"TEB","komuna":"Gjakovë"},"geometry":{"type":"Point","coordinates":[20.430072,42.383321]}},{"type":"Feature","properties":{"osm_id":"9103438755","fclass":"bank","name":"TEB","banka":"TEB","komuna":"Prizren"},"geometry":{"type":"Point","coordinates":[20.736337,42.209475]}},{"type":"Feature","properties":{"osm_id":"9103438870","fclass":"bank","name":"NLB","banka":"NLB Banka","komuna":"Prizren"},"geometry":{"type":"Point","coordinates":[20.743296,42.210813]}},{"type":"Feature","properties":{"osm_id":"9124938228","fclass":"bank","name":"BPB","banka":"Banka per Biznes (BPB)","komuna":"Prizren"},"geometry":{"type":"Point","coordinates":[20.7295,42.214672]}},{"type":"Feature","properties":{"osm_id":"9124938231","fclass":"bank","name":"Raiffeisen","banka":"Raiffeisen Bank","komuna":"Prizren"},"geometry":{"type":"Point","coordinates":[20.736984,42.215772]}},{"type":"Feature","properties":{"osm_id":"9124938327","fclass":"bank","name":"Isbank","banka":"Isbank","komuna":"Prizren"},"geometry":{"type":"Point","coordinates":[20.737338,42.215882]}},{"type":"Feature","properties":{"osm_id":"9124938525","fclass":"bank","name":"Ekonomike","banka":"Banka Ekonomike","komuna":"Prizren"},"geometry":{"type":"Point","coordinates":[20.738448,42.209471]}},{"type":"Feature","properties":{"osm_id":"9124938823","fclass":"bank","name":"KEP","banka":"KEP Trust","komuna":"Prizren"},"geometry":{"type":"Point","coordinates":[20.738332,42.209454]}},{"type":"Feature","properties":{"osm_id":"9623013717","fclass":"bank","name":"Banka Ekonomike","banka":"Banka Ekonomike","komuna":"Prizren"},"geometry":{"type":"Point","coordinates":[20.726548,42.215981]}},{"type":"Feature","properties":{"osm_id":"9689312517","fclass":"bank","name":"Raiffeisen Bank","banka":"Raiffeisen Bank","komuna":"Kaçanik"},"geometry":{"type":"Point","coordinates":[21.256399,42.232206]}},{"type":"Feature","properties":{"osm_id":"9817732296","fclass":"bank","name":"Pro Credit Bank","banka":"ProCredit Bank","komuna":"Fushë Kosovë"},"geometry":{"type":"Point","coordinates":[21.10589,42.641514]}},{"type":"Feature","properties":{"osm_id":"9817762367","fclass":"bank","name":"Credins Bank","banka":"Credins Bank","komuna":"Fushë Kosovë"},"geometry":{"type":"Point","coordinates":[21.105758,42.641649]}},{"type":"Feature","properties":{"osm_id":"9817762785","fclass":"bank","name":"NLB Banka","banka":"NLB Banka","komuna":"Fushë Kosovë"},"geometry":{"type":"Point","coordinates":[21.106029,42.641549]}},{"type":"Feature","properties":{"osm_id":"9845790517","fclass":"bank","name":"Rruga “Rrustem Shala”","banka":"Rruga “Rrustem Shala”","komuna":"Drenas"},"geometry":{"type":"Point","coordinates":[20.893116,42.590776]}},{"type":"Feature","properties":{"osm_id":"9864727817","fclass":"bank","name":"Ri-Ecodex","banka":"Ri-Ecodex","komuna":"Kaçanik"},"geometry":{"type":"Point","coordinates":[21.257208,42.230332]}},{"type":"Feature","properties":{"osm_id":"9949422318","fclass":"bank","name":"KEP","banka":"KEP Trust","komuna":"Gjilan"},"geometry":{"type":"Point","coordinates":[21.471073,42.461014]}},{"type":"Feature","properties":{"osm_id":"10159698717","fclass":"bank","name":"","banka":"E panjohur","komuna":"Gjilan"},"geometry":{"type":"Point","coordinates":[21.481958,42.451581]}},{"type":"Feature","properties":{"osm_id":"10723978265","fclass":"bank","name":"Western Union","banka":"Western Union","komuna":"Graçanicë"},"geometry":{"type":"Point","coordinates":[21.136431,42.565208]}},{"type":"Feature","properties":{"osm_id":"10723978271","fclass":"bank","name":"Banka Ekonomike","banka":"Banka Ekonomike","komuna":"Graçanicë"},"geometry":{"type":"Point","coordinates":[21.136721,42.564998]}},{"type":"Feature","properties":{"osm_id":"10731767313","fclass":"bank","name":"ProCredit Bank ATM","banka":"ProCredit Bank","komuna":"Skenderaj"},"geometry":{"type":"Point","coordinates":[20.787639,42.747633]}},{"type":"Feature","properties":{"osm_id":"11010464484","fclass":"bank","name":"Credins Bank","banka":"Credins Bank","komuna":"Prizren"},"geometry":{"type":"Point","coordinates":[20.725717,42.218931]}},{"type":"Feature","properties":{"osm_id":"11110304010","fclass":"bank","name":"Banka Ekonomike","banka":"Banka Ekonomike","komuna":"Gjilan"},"geometry":{"type":"Point","coordinates":[21.469743,42.464259]}},{"type":"Feature","properties":{"osm_id":"11220647868","fclass":"bank","name":"BKT","banka":"BKT","komuna":"Prishtinë"},"geometry":{"type":"Point","coordinates":[21.153264,42.653415]}},{"type":"Feature","properties":{"osm_id":"11228830962","fclass":"bank","name":"Raiffeisen Bank","banka":"Raiffeisen Bank","komuna":"Gjakovë"},"geometry":{"type":"Point","coordinates":[20.439149,42.376485]}}]}