{"type":"FeatureCollection","name":"transfer","crs":{"type":"name","properties":{"name":"urn:ogc:def:crs:OGC:1.3:CRS84"}},"features":[{"type":"Feature","properties":{"osm_id":"10723978265","fclass":"transfer","name":"Western Union","banka":"Western Union","komuna":"Graçanicë"},"geometry":{"type":"Point","coordinates":[21.136431,42.565208]}},{"type":"Feature","properties":{"osm_id":"12047381155","fclass":"transfer","name":"Ria / Capital","banka":"Ria / Capital","komuna":"Prishtinë"},"geometry":{"type":"Point","coordinates":[21.168841,42.667727]}},{"type":"Feature","properties":{"osm_id":"12048792836","fclass":"transfer","name":"Ria / Capital","banka":"Ria / Capital","komuna":"Prishtinë"},"geometry":{"type":"Point","coordinates":[21.162001,42.648013]}},{"type":"Feature","properties":{"osm_id":"12048800121","fclass":"transfer","name":"Ria / Capital","banka":"Ria / Capital","komuna":"Prishtinë"},"geometry":{"type":"Point","coordinates":[21.158604,42.659418]}},{"type":"Feature","properties":{"osm_id":"12048810457","fclass":"transfer","name":"Ria / Capital","banka":"Ria / Capital","komuna":"Prishtinë"},"geometry":{"type":"Point","coordinates":[21.150928,42.712428]}},{"type":"Feature","properties":{"osm_id":"12048814182","fclass":"transfer","name":"Ria / Capital","banka":"Ria / Capital","komuna":"Prishtinë"},"geometry":{"type":"Point","coordinates":[21.167242,42.643889]}},{"type":"Feature","properties":{"osm_id":"12048815635","fclass":"transfer","name":"Ria / Capital","banka":"Ria / Capital","komuna":"Prishtinë"},"geometry":{"type":"Point","coordinates":[21.17535,42.666864]}},{"type":"Feature","properties":{"osm_id":"12048844922","fclass":"transfer","name":"Ria / Capital","banka":"Ria / Capital","komuna":"Prishtinë"},"geometry":{"type":"Point","coordinates":[21.184185,42.645889]}},{"type":"Feature","properties":{"osm_id":"12048856512","fclass":"transfer","name":"Ria / Capital","banka":"Ria / Capital","komuna":"Prishtinë"},"geometry":{"type":"Point","coordinates":[21.174522,42.646502]}},{"type":"Feature","properties":{"osm_id":"12048862971","fclass":"transfer","name":"Ria / Capital","banka":"Ria / Capital","komuna":"Prishtinë"},"geometry":{"type":"Point","coordinates":[21.176945,42.655812]}},{"type":"Feature","properties":{"osm_id":"12048877941","fclass":"transfer","name":"Ria / Capital","banka":"Ria / Capital","komuna":"Prishtinë"},"geometry":{"type":"Point","coordinates":[21.169704,42.645669]}},{"type":"Feature","properties":{"osm_id":"12048893020","fclass":"transfer","name":"Ria / Capital","banka":"Ria / Capital","komuna":"Prishtinë"},"geometry":{"type":"Point","coordinates":[21.191398,42.624802]}},{"type":"Feature","properties":{"osm_id":"12048894031","fclass":"transfer","name":"Ria / Capital","banka":"Ria / Capital","komuna":"Prishtinë"},"geometry":{"type":"Point","coordinates":[21.158945,42.653612]}},{"type":"Feature","properties":{"osm_id":"12048933332","fclass":"transfer","name":"Ria / Capital","banka":"Ria / Capital","komuna":"Prishtinë"},"geometry":{"type":"Point","coordinates":[21.16048,42.655249]}},{"type":"Feature","properties":{"osm_id":"12048966198","fclass":"transfer","name":"Ria / Capital","banka":"Ria / Capital","komuna":"Prishtinë"},"geometry":{"type":"Point","coordinates":[21.154288,42.657819]}},{"type":"Feature","properties":{"osm_id":"12049003174","fclass":"transfer","name":"Ria / Capital","banka":"Ria / Capital","komuna":"Prishtinë"},"geometry":{"type":"Point","coordinates":[21.185293,42.666721]}},{"type":"Feature","properties":{"osm_id":"12049016236","fclass":"transfer","name":"Ria / Capital","banka":"Ria / Capital","komuna":"Prishtinë"},"geometry":{"type":"Point","coordinates":[21.16187,42.677635]}},{"type":"Feature","properties":{"osm_id":"12049043349","fclass":"transfer","name":"Ria / Capital","banka":"Ria / Capital","komuna":"Prishtinë"},"geometry":{"type":"Point","coordinates":[21.155026,42.664614]}},{"type":"Feature","properties":{"osm_id":"12049043355","fclass":"transfer","name":"Ria / Capital","banka":"Ria / Capital","komuna":"Prishtinë"},"geometry":{"type":"Point","coordinates":[21.164565,42.654318]}},{"type":"Feature","properties":{"osm_id":"12049048414","fclass":"transfer","name":"Ria / Capital","banka":"Ria / Capital","komuna":"Prishtinë"},"geometry":{"type":"Point","coordinates":[21.182647,42.621588]}},{"type":"Feature","properties":{"osm_id":"12049068857","fclass":"transfer","name":"Ria / Capital","banka":"Ria / Capital","komuna":"Prishtinë"},"geometry":{"type":"Point","coordinates":[21.15895,42.650481]}},{"type":"Feature","properties":{"osm_id":"12049094816","fclass":"transfer","name":"Ria / Capital","banka":"Ria / Capital","komuna":"Prishtinë"},"geometry":{"type":"Point","coordinates":[21.18173,42.65917]}},{"type":"Feature","properties":{"osm_id":"12049135264","fclass":"transfer","name":"Ria / Capital","banka":"Ria / Capital","komuna":"Prishtinë"},"geometry":{"type":"Point","coordinates":[21.159607,42.660445]}},{"type":"Feature","properties":{"osm_id":"12056651493","fclass":"transfer","name":"Ria / Capital","banka":"Ria / Capital","komuna":"Prishtinë"},"geometry":{"type":"Point","coordinates":[21.164682,42.658587]}},{"type":"Feature","properties":{"osm_id":"12056657635","fclass":"transfer","name":"Ria / Capital","banka":"Ria / Capital","komuna":"Prishtinë"},"geometry":{"type":"Point","coordinates":[21.163932,42.666552]}},{"type":"Feature","properties":{"osm_id":"12056657967","fclass":"transfer","name":"Ria / Capital","banka":"Ria / Capital","komuna":"Prishtinë"},"geometry":{"type":"Point","coordinates":[21.159062,42.652533]}},{"type":"Feature","properties":{"osm_id":"12056658376","fclass":"transfer","name":"Ria / Capital","banka":"Ria / Capital","komuna":"Prishtinë"},"geometry":{"type":"Point","coordinates":[21.167341,42.671925]}},{"type":"Feature","properties":{"osm_id":"12056666680","fclass":"transfer","name":"Ria / Capital","banka":"Ria / Capital","komuna":"Prishtinë"},"geometry":{"type":"Point","coordinates":[21.155338,42.655166]}},{"type":"Feature","properties":{"osm_id":"12056668773","fclass":"transfer","name":"Ria / Capital","banka":"Ria / Capital","komuna":"Prishtinë"},"geometry":{"type":"Point","coordinates":[21.160668,42.663596]}},{"type":"Feature","properties":{"osm_id":"12056668794","fclass":"transfer","name":"Ria / Capital","banka":"Ria / Capital","komuna":"Prishtinë"},"geometry":{"type":"Point","coordinates":[21.162702,42.670263]}},{"type":"Feature","properties":{"osm_id":"12056669531","fclass":"transfer","name":"Ria / Capital","banka":"Ria / Capital","komuna":"Prishtinë"},"geometry":{"type":"Point","coordinates":[21.164756,42.662785]}},{"type":"Feature","properties":{"osm_id":"12056679994","fclass":"transfer","name":"Ria / Capital","banka":"Ria / Capital","komuna":"Prishtinë"},"geometry":{"type":"Point","coordinates":[21.157066,42.666138]}},{"type":"Feature","properties":{"osm_id":"12056715587","fclass":"transfer","name":"Ria / Capital","banka":"Ria / Capital","komuna":"Artanë"},"geometry":{"type":"Point","coordinates":[21.425353,42.602981]}},{"type":"Feature","properties":{"osm_id":"12056724024","fclass":"transfer","name":"Ria / Capital","banka":"Ria / Capital","komuna":"Deçan"},"geometry":{"type":"Point","coordinates":[20.288892,42.557149]}},{"type":"Feature","properties":{"osm_id":"12056735606","fclass":"transfer","name":"Ria / Capital","banka":"Ria / Capital","komuna":"Drenas"},"geometry":{"type":"Point","coordinates":[20.904224,42.58304]}},{"type":"Feature","properties":{"osm_id":"12056738865","fclass":"transfer","name":"Ria / Capital","banka":"Ria / Capital","komuna":"Dragash"},"geometry":{"type":"Point","coordinates":[20.650343,42.061656]}},{"type":"Feature","properties":{"osm_id":"12056744438","fclass":"transfer","name":"Ria / Capital","banka":"Ria / Capital","komuna":"Drenas"},"geometry":{"type":"Point","coordinates":[20.900774,42.627143]}},{"type":"Feature","properties":{"osm_id":"12056744987","fclass":"transfer","name":"Ria / Capital","banka":"Ria / Capital","komuna":"Deçan"},"geometry":{"type":"Point","coordinates":[20.290455,42.544024]}},{"type":"Feature","properties":{"osm_id":"12056745959","fclass":"transfer","name":"Ria / Capital","banka":"Ria / Capital","komuna":"Dragash"},"geometry":{"type":"Point","coordinates":[20.653572,42.060876]}},{"type":"Feature","properties":{"osm_id":"12056748198","fclass":"transfer","name":"Ria / Capital","banka":"Ria / Capital","komuna":"Drenas"},"geometry":{"type":"Point","coordinates":[20.894717,42.62454]}},{"type":"Feature","properties":{"osm_id":"12056771293","fclass":"transfer","name":"Ria / Capital","banka":"Ria / Capital","komuna":"Drenas"},"geometry":{"type":"Point","coordinates":[20.892081,42.621294]}},{"type":"Feature","properties":{"osm_id":"12056789909","fclass":"transfer","name":"Ria / Capital","banka":"Ria / Capital","komuna":"Ferizaj"},"geometry":{"type":"Point","coordinates":[21.147603,42.370167]}},{"type":"Feature","properties":{"osm_id":"12056957652","fclass":"transfer","name":"Transfer","banka":"Transfer","komuna":"Prizren"},"geometry":{"type":"Point","coordinates":[20.7372,42.210026]}},{"type":"Feature","properties":{"osm_id":"12056958754","fclass":"transfer","name":"Ria / Capital","banka":"Ria / Capital","komuna":"Ferizaj"},"geometry":{"type":"Point","coordinates":[21.158051,42.374143]}},{"type":"Feature","properties":{"osm_id":"12057003243","fclass":"transfer","name":"Ria / Capital","banka":"Ria / Capital","komuna":"Ferizaj"},"geometry":{"type":"Point","coordinates":[21.154209,42.328957]}},{"type":"Feature","properties":{"osm_id":"12057005931","fclass":"transfer","name":"Ria / Capital","banka":"Ria / Capital","komuna":"Ferizaj"},"geometry":{"type":"Point","coordinates":[21.09623,42.4181]}},{"type":"Feature","properties":{"osm_id":"12057097840","fclass":"transfer","name":"Ria / Capital","banka":"Ria / Capital","komuna":"Ferizaj"},"geometry":{"type":"Point","coordinates":[21.153076,42.360582]}},{"type":"Feature","properties":{"osm_id":"12057098303","fclass":"transfer","name":"Ria / Capital","banka":"Ria / Capital","komuna":"Ferizaj"},"geometry":{"type":"Point","coordinates":[21.152296,42.368612]}},{"type":"Feature","properties":{"osm_id":"12057099827","fclass":"transfer","name":"Ria / Capital","banka":"Ria / Capital","komuna":"Ferizaj"},"geometry":{"type":"Point","coordinates":[21.185784,42.369626]}},{"type":"Feature","properties":{"osm_id":"12057131031","fclass":"transfer","name":"Ria / Capital","banka":"Ria / Capital","komuna":"Ferizaj"},"geometry":{"type":"Point","coordinates":[21.157423,42.365954]}},{"type":"Feature","properties":{"osm_id":"12057131978","fclass":"transfer","name":"Ria / Capital","banka":"Ria / Capital","komuna":"Ferizaj"},"geometry":{"type":"Point","coordinates":[21.14989,42.369418]}},{"type":"Feature","properties":{"osm_id":"12057136941","fclass":"transfer","name":"Ria / Capital","banka":"Ria / Capital","komuna":"Ferizaj"},"geometry":{"type":"Point","coordinates":[21.147951,42.371637]}},{"type":"Feature","properties":{"osm_id":"12057184271","fclass":"transfer","name":"Ria / Capital","banka":"Ria / Capital","komuna":"Ferizaj"},"geometry":{"type":"Point","coordinates":[21.15376,42.3695]}},{"type":"Feature","properties":{"osm_id":"12057187104","fclass":"transfer","name":"Ria / Capital","banka":"Ria / Capital","komuna":"Ferizaj"},"geometry":{"type":"Point","coordinates":[21.147563,42.374078]}},{"type":"Feature","properties":{"osm_id":"12057198161","fclass":"transfer","name":"Ria / Capital","banka":"Ria / Capital","komuna":"Fushë Kosovë"},"geometry":{"type":"Point","coordinates":[21.092039,42.632886]}},{"type":"Feature","properties":{"osm_id":"12057203667","fclass":"transfer","name":"Ria / Capital","banka":"Ria / Capital","komuna":"Ferizaj"},"geometry":{"type":"Point","coordinates":[21.145062,42.372124]}},{"type":"Feature","properties":{"osm_id":"12057214470","fclass":"transfer","name":"Ria / Capital","banka":"Ria / Capital","komuna":"Ferizaj"},"geometry":{"type":"Point","coordinates":[21.165225,42.36734]}},{"type":"Feature","properties":{"osm_id":"12057219222","fclass":"transfer","name":"Ria / Capital","banka":"Ria / Capital","komuna":"Ferizaj"},"geometry":{"type":"Point","coordinates":[21.15037,42.386024]}},{"type":"Feature","properties":{"osm_id":"12057225132","fclass":"transfer","name":"Ria / Capital","banka":"Ria / Capital","komuna":"Ferizaj"},"geometry":{"type":"Point","coordinates":[21.153607,42.367704]}},{"type":"Feature","properties":{"osm_id":"12057246093","fclass":"transfer","name":"Ria / Capital","banka":"Ria / Capital","komuna":"Fushë Kosovë"},"geometry":{"type":"Point","coordinates":[21.093623,42.632033]}},{"type":"Feature","properties":{"osm_id":"12057246094","fclass":"transfer","name":"Ria / Capital","banka":"Ria / Capital","komuna":"Fushë Kosovë"},"geometry":{"type":"Point","coordinates":[21.095945,42.639526]}},{"type":"Feature","properties":{"osm_id":"12057254013","fclass":"transfer","name":"Ria / Capital","banka":"Ria / Capital","komuna":"Fushë Kosovë"},"geometry":{"type":"Point","coordinates":[21.100066,42.640474]}},{"type":"Feature","properties":{"osm_id":"12057255083","fclass":"transfer","name":"Ria / Capital","banka":"Ria / Capital","komuna":"Fushë Kosovë"},"geometry":{"type":"Point","coordinates":[21.0852,42.634885]}},{"type":"Feature","properties":{"osm_id":"12057282037","fclass":"transfer","name":"Ria / Capital","banka":"Ria / Capital","komuna":"Fushë Kosovë"},"geometry":{"type":"Point","coordinates":[21.093447,42.637801]}},{"type":"Feature","properties":{"osm_id":"12057283568","fclass":"transfer","name":"Ria / Capital","banka":"Ria / Capital","komuna":"Fushë Kosovë"},"geometry":{"type":"Point","coordinates":[21.105529,42.642141]}},{"type":"Feature","properties":{"osm_id":"12057299199","fclass":"transfer","name":"Ria / Capital","banka":"Ria / Capital","komuna":"Gjakovë"},"geometry":{"type":"Point","coordinates":[20.426282,42.37538]}},{"type":"Feature","properties":{"osm_id":"12057303586","fclass":"transfer","name":"Ria / Capital","banka":"Ria / Capital","komuna":"Gjakovë"},"geometry":{"type":"Point","coordinates":[20.434722,42.382372]}},{"type":"Feature","properties":{"osm_id":"12057304150","fclass":"transfer","name":"Ria / Capital","banka":"Ria / Capital","komuna":"Gjakovë"},"geometry":{"type":"Point","coordinates":[20.418659,42.398021]}},{"type":"Feature","properties":{"osm_id":"12057310083","fclass":"transfer","name":"Ria / Capital","banka":"Ria / Capital","komuna":"Gjakovë"},"geometry":{"type":"Point","coordinates":[20.43156,42.381512]}},{"type":"Feature","properties":{"osm_id":"12057310778","fclass":"transfer","name":"Ria / Capital","banka":"Ria / Capital","komuna":"Gjakovë"},"geometry":{"type":"Point","coordinates":[20.435677,42.37225]}},{"type":"Feature","properties":{"osm_id":"12058631313","fclass":"transfer","name":"Ria / Capital","banka":"Ria / Capital","komuna":"Gjakovë"},"geometry":{"type":"Point","coordinates":[20.435353,42.377023]}},{"type":"Feature","properties":{"osm_id":"12058652742","fclass":"transfer","name":"Ria / Capital","banka":"Ria / Capital","komuna":"Gjakovë"},"geometry":{"type":"Point","coordinates":[20.428028,42.38445]}},{"type":"Feature","properties":{"osm_id":"12058652854","fclass":"transfer","name":"Ria / Capital","banka":"Ria / Capital","komuna":"Gjilan"},"geometry":{"type":"Point","coordinates":[21.459875,42.463221]}},{"type":"Feature","properties":{"osm_id":"12058655638","fclass":"transfer","name":"Ria / Capital","banka":"Ria / Capital","komuna":"Gjakovë"},"geometry":{"type":"Point","coordinates":[20.430764,42.37991]}},{"type":"Feature","properties":{"osm_id":"12058658708","fclass":"transfer","name":"Ria / Capital","banka":"Ria / Capital","komuna":"Gjakovë"},"geometry":{"type":"Point","coordinates":[20.44231,42.376667]}},{"type":"Feature","properties":{"osm_id":"12058661240","fclass":"transfer","name":"Ria / Capital","banka":"Ria / Capital","komuna":"Gjakovë"},"geometry":{"type":"Point","coordinates":[20.430307,42.385331]}},{"type":"Feature","properties":{"osm_id":"12058661946","fclass":"transfer","name":"Ria / Capital","banka":"Ria / Capital","komuna":"Gjakovë"},"geometry":{"type":"Point","coordinates":[20.43277,42.387253]}},{"type":"Feature","properties":{"osm_id":"12058665052","fclass":"transfer","name":"Ria / Capital","banka":"Ria / Capital","komuna":"Gjilan"},"geometry":{"type":"Point","coordinates":[21.470638,42.462553]}},{"type":"Feature","properties":{"osm_id":"12058673614","fclass":"transfer","name":"Ria / Capital","banka":"Ria / Capital","komuna":"Gjakovë"},"geometry":{"type":"Point","coordinates":[20.442289,42.376396]}},{"type":"Feature","properties":{"osm_id":"12058685187","fclass":"transfer","name":"Ria / Capital","banka":"Ria / Capital","komuna":"Gjakovë"},"geometry":{"type":"Point","coordinates":[20.430321,42.370198]}},{"type":"Feature","properties":{"osm_id":"12058698220","fclass":"transfer","name":"Ria / Capital","banka":"Ria / Capital","komuna":"Gjilan"},"geometry":{"type":"Point","coordinates":[21.461982,42.469127]}},{"type":"Feature","properties":{"osm_id":"12058700412","fclass":"transfer","name":"Ria / Capital","banka":"Ria / Capital","komuna":"Gjilan"},"geometry":{"type":"Point","coordinates":[21.471719,42.465874]}},{"type":"Feature","properties":{"osm_id":"12058721394","fclass":"transfer","name":"Ria / Capital","banka":"Ria / Capital","komuna":"Gjilan"},"geometry":{"type":"Point","coordinates":[21.471096,42.450255]}},{"type":"Feature","properties":{"osm_id":"12058727178","fclass":"transfer","name":"Ria / Capital","banka":"Ria / Capital","komuna":"Gjilan"},"geometry":{"type":"Point","coordinates":[21.471052,42.461404]}},{"type":"Feature","properties":{"osm_id":"12058727634","fclass":"transfer","name":"Ria / Capital","banka":"Ria / Capital","komuna":"Gjilan"},"geometry":{"type":"Point","coordinates":[21.458234,42.463617]}},{"type":"Feature","properties":{"osm_id":"12058735271","fclass":"transfer","name":"Ria / Capital","banka":"Ria / Capital","komuna":"Gjilan"},"geometry":{"type":"Point","coordinates":[21.484227,42.37294]}},{"type":"Feature","properties":{"osm_id":"12058747854","fclass":"transfer","name":"Ria / Capital","banka":"Ria / Capital","komuna":"Gjilan"},"geometry":{"type":"Point","coordinates":[21.469284,42.465717]}},{"type":"Feature","properties":{"osm_id":"12058754226","fclass":"transfer","name":"Ria / Capital","banka":"Ria / Capital","komuna":"Gjilan"},"geometry":{"type":"Point","coordinates":[21.479511,42.470169]}},{"type":"Feature","properties":{"osm_id":"12058759501","fclass":"transfer","name":"Ria / Capital","banka":"Ria / Capital","komuna":"Gjilan"},"geometry":{"type":"Point","coordinates":[21.468276,42.463097]}},{"type":"Feature","properties":{"osm_id":"12058760378","fclass":"transfer","name":"Ria / Capital","banka":"Ria / Capital","komuna":"Gjilan"},"geometry":{"type":"Point","coordinates":[21.471706,42.446166]}},{"type":"Feature","properties":{"osm_id":"12058762852","fclass":"transfer","name":"Ria / Capital","banka":"Ria / Capital","komuna":"Gjilan"},"geometry":{"type":"Point","coordinates":[21.496798,42.478062]}},{"type":"Feature","properties":{"osm_id":"12058763490","fclass":"transfer","name":"Ria / Capital","banka":"Ria / Capital","komuna":"Gjilan"},"geometry":{"type":"Point","coordinates":[21.463877,42.45574]}},{"type":"Feature","properties":{"osm_id":"12058767344","fclass":"transfer","name":"Ria / Capital","banka":"Ria / Capital","komuna":"Partesh"},"geometry":{"type":"Point","coordinates":[21.497693,42.40611]}},{"type":"Feature","properties":{"osm_id":"12058770365","fclass":"transfer","name":"Ria / Capital","banka":"Ria / Capital","komuna":"Graçanicë"},"geometry":{"type":"Point","coordinates":[21.192525,42.601356]}},{"type":"Feature","properties":{"osm_id":"12058780161","fclass":"transfer","name":"Ria / Capital","banka":"Ria / Capital","komuna":"Gjilan"},"geometry":{"type":"Point","coordinates":[21.466801,42.460399]}},{"type":"Feature","properties":{"osm_id":"12058805912","fclass":"transfer","name":"Ria / Capital","banka":"Ria / Capital","komuna":"Graçanicë"},"geometry":{"type":"Point","coordinates":[21.192288,42.599234]}},{"type":"Feature","properties":{"osm_id":"12058810048","fclass":"transfer","name":"Ria / Capital","banka":"Ria / Capital","komuna":"Graçanicë"},"geometry":{"type":"Point","coordinates":[21.142545,42.596414]}},{"type":"Feature","properties":{"osm_id":"12058811339","fclass":"transfer","name":"Ria / Capital","banka":"Ria / Capital","komuna":"Hani I Elezit"},"geometry":{"type":"Point","coordinates":[21.297782,42.15147]}},{"type":"Feature","properties":{"osm_id":"12058820035","fclass":"transfer","name":"Ria / Capital","banka":"Ria / Capital","komuna":"Kaçanik"},"geometry":{"type":"Point","coordinates":[21.257055,42.228461]}},{"type":"Feature","properties":{"osm_id":"12058820591","fclass":"transfer","name":"Ria / Capital","banka":"Ria / Capital","komuna":"Graçanicë"},"geometry":{"type":"Point","coordinates":[21.180607,42.546065]}},{"type":"Feature","properties":{"osm_id":"12058820646","fclass":"transfer","name":"Ria / Capital","banka":"Ria / Capital","komuna":"Istog"},"geometry":{"type":"Point","coordinates":[20.490041,42.781946]}},{"type":"Feature","properties":{"osm_id":"12058823190","fclass":"transfer","name":"Ria / Capital","banka":"Ria / Capital","komuna":"Istog"},"geometry":{"type":"Point","coordinates":[20.488135,42.781776]}},{"type":"Feature","properties":{"osm_id":"12058846324","fclass":"transfer","name":"Ria / Capital","banka":"Ria / Capital","komuna":"Junik"},"geometry":{"type":"Point","coordinates":[20.277396,42.476371]}},{"type":"Feature","properties":{"osm_id":"12058850127","fclass":"transfer","name":"Ria / Capital","banka":"Ria / Capital","komuna":"Istog"},"geometry":{"type":"Point","coordinates":[20.488019,42.778882]}},{"type":"Feature","properties":{"osm_id":"12058861770","fclass":"transfer","name":"Ria / Capital","banka":"Ria / Capital","komuna":"Kaçanik"},"geometry":{"type":"Point","coordinates":[21.253524,42.228113]}},{"type":"Feature","properties":{"osm_id":"12058867526","fclass":"transfer","name":"Ria / Capital","banka":"Ria / Capital","komuna":"Kaçanik"},"geometry":{"type":"Point","coordinates":[21.257701,42.227874]}},{"type":"Feature","properties":{"osm_id":"12058870529","fclass":"transfer","name":"Ria / Capital","banka":"Ria / Capital","komuna":"Kamenicë"},"geometry":{"type":"Point","coordinates":[21.577572,42.580128]}},{"type":"Feature","properties":{"osm_id":"12058876979","fclass":"transfer","name":"Ria / Capital","banka":"Ria / Capital","komuna":"Klinë"},"geometry":{"type":"Point","coordinates":[20.575777,42.618384]}},{"type":"Feature","properties":{"osm_id":"12058877742","fclass":"transfer","name":"Ria / Capital","banka":"Ria / Capital","komuna":"Leposaviq"},"geometry":{"type":"Point","coordinates":[20.800375,43.10321]}},{"type":"Feature","properties":{"osm_id":"12058882054","fclass":"transfer","name":"Ria / Capital","banka":"Ria / Capital","komuna":"Kamenicë"},"geometry":{"type":"Point","coordinates":[21.579604,42.577048]}},{"type":"Feature","properties":{"osm_id":"12058892581","fclass":"transfer","name":"Ria / Capital","banka":"Ria / Capital","komuna":"Kamenicë"},"geometry":{"type":"Point","coordinates":[21.575596,42.583068]}},{"type":"Feature","properties":{"osm_id":"12058893855","fclass":"transfer","name":"Ria / Capital","banka":"Ria / Capital","komuna":"Leposaviq"},"geometry":{"type":"Point","coordinates":[20.740185,43.168712]}},{"type":"Feature","properties":{"osm_id":"12058900078","fclass":"transfer","name":"Ria / Capital","banka":"Ria / Capital","komuna":"Viti"},"geometry":{"type":"Point","coordinates":[21.374119,42.372748]}},{"type":"Feature","properties":{"osm_id":"12058904606","fclass":"transfer","name":"Ria / Capital","banka":"Ria / Capital","komuna":"Lipjan"},"geometry":{"type":"Point","coordinates":[21.123141,42.520303]}},{"type":"Feature","properties":{"osm_id":"12058905689","fclass":"transfer","name":"Ria / Capital","banka":"Ria / Capital","komuna":"Lipjan"},"geometry":{"type":"Point","coordinates":[21.12191,42.522647]}},{"type":"Feature","properties":{"osm_id":"12058933638","fclass":"transfer","name":"Ria / Capital","banka":"Ria / Capital","komuna":"Lipjan"},"geometry":{"type":"Point","coordinates":[21.12273,42.519239]}},{"type":"Feature","properties":{"osm_id":"12058934474","fclass":"transfer","name":"Ria / Capital","banka":"Ria / Capital","komuna":"Lipjan"},"geometry":{"type":"Point","coordinates":[21.121748,42.520247]}},{"type":"Feature","properties":{"osm_id":"12058934475","fclass":"transfer","name":"Ria / Capital","banka":"Ria / Capital","komuna":"Malishevë"},"geometry":{"type":"Point","coordinates":[20.742935,42.483486]}},{"type":"Feature","properties":{"osm_id":"12058942707","fclass":"transfer","name":"Ria / Capital","banka":"Ria / Capital","komuna":"Mitrovicë"},"geometry":{"type":"Point","coordinates":[20.871202,42.888323]}},{"type":"Feature","properties":{"osm_id":"12058957184","fclass":"transfer","name":"Ria / Capital","banka":"Ria / Capital","komuna":"Mitrovicë"},"geometry":{"type":"Point","coordinates":[20.865552,42.888797]}},{"type":"Feature","properties":{"osm_id":"12058958678","fclass":"transfer","name":"Ria / Capital","banka":"Ria / Capital","komuna":"Mitrovicë"},"geometry":{"type":"Point","coordinates":[20.865802,42.880155]}},{"type":"Feature","properties":{"osm_id":"12058958989","fclass":"transfer","name":"Ria / Capital","banka":"Ria / Capital","komuna":"Mitrovicë"},"geometry":{"type":"Point","coordinates":[20.867288,42.887359]}},{"type":"Feature","properties":{"osm_id":"12058960274","fclass":"transfer","name":"Ria / Capital","banka":"Ria / Capital","komuna":"Mitrovicë"},"geometry":{"type":"Point","coordinates":[20.871901,42.892493]}},{"type":"Feature","properties":{"osm_id":"12058993789","fclass":"transfer","name":"Ria / Capital","banka":"Ria / Capital","komuna":"Mitrovicë"},"geometry":{"type":"Point","coordinates":[20.869665,42.886604]}},{"type":"Feature","properties":{"osm_id":"12059003413","fclass":"transfer","name":"Ria / Capital","banka":"Ria / Capital","komuna":"Mitrovicë Veriore"},"geometry":{"type":"Point","coordinates":[20.867361,42.89242]}},{"type":"Feature","properties":{"osm_id":"12059007678","fclass":"transfer","name":"Ria / Capital","banka":"Ria / Capital","komuna":"Mitrovicë"},"geometry":{"type":"Point","coordinates":[20.866178,42.883324]}},{"type":"Feature","properties":{"osm_id":"12059031867","fclass":"transfer","name":"Ria / Capital","banka":"Ria / Capital","komuna":"Mitrovicë Veriore"},"geometry":{"type":"Point","coordinates":[20.870308,42.895042]}},{"type":"Feature","properties":{"osm_id":"12059063364","fclass":"transfer","name":"Ria / Capital","banka":"Ria / Capital","komuna":"Pejë"},"geometry":{"type":"Point","coordinates":[20.288958,42.657973]}},{"type":"Feature","properties":{"osm_id":"12059082527","fclass":"transfer","name":"Ria / Capital","banka":"Ria / Capital","komuna":"Kastriot"},"geometry":{"type":"Point","coordinates":[21.070436,42.68631]}},{"type":"Feature","properties":{"osm_id":"12059085023","fclass":"transfer","name":"Ria / Capital","banka":"Ria / Capital","komuna":"Mitrovicë Veriore"},"geometry":{"type":"Point","coordinates":[20.867449,42.892738]}},{"type":"Feature","properties":{"osm_id":"12059085068","fclass":"transfer","name":"Ria / Capital","banka":"Ria / Capital","komuna":"Kastriot"},"geometry":{"type":"Point","coordinates":[21.050047,42.707807]}},{"type":"Feature","properties":{"osm_id":"12059085878","fclass":"transfer","name":"Ria / Capital","banka":"Ria / Capital","komuna":"Kastriot"},"geometry":{"type":"Point","coordinates":[21.069919,42.686186]}},{"type":"Feature","properties":{"osm_id":"12059097874","fclass":"transfer","name":"Ria / Capital","banka":"Ria / Capital","komuna":"Pejë"},"geometry":{"type":"Point","coordinates":[20.298414,42.663772]}},{"type":"Feature","properties":{"osm_id":"12059105787","fclass":"transfer","name":"Ria / Capital","banka":"Ria / Capital","komuna":"Pejë"},"geometry":{"type":"Point","coordinates":[20.303415,42.667358]}},{"type":"Feature","properties":{"osm_id":"12059107733","fclass":"transfer","name":"Ria / Capital","banka":"Ria / Capital","komuna":"Pejë"},"geometry":{"type":"Point","coordinates":[20.292532,42.657306]}},{"type":"Feature","properties":{"osm_id":"12059108890","fclass":"transfer","name":"Ria / Capital","banka":"Ria / Capital","komuna":"Pejë"},"geometry":{"type":"Point","coordinates":[20.292052,42.660484]}},{"type":"Feature","properties":{"osm_id":"12059114204","fclass":"transfer","name":"Ria / Capital","banka":"Ria / Capital","komuna":"Pejë"},"geometry":{"type":"Point","coordinates":[20.300363,42.652962]}},{"type":"Feature","properties":{"osm_id":"12059142947","fclass":"transfer","name":"Ria / Capital","banka":"Ria / Capital","komuna":"Pejë"},"geometry":{"type":"Point","coordinates":[20.30313,42.663644]}},{"type":"Feature","properties":{"osm_id":"12059144441","fclass":"transfer","name":"Ria / Capital","banka":"Ria / Capital","komuna":"Pejë"},"geometry":{"type":"Point","coordinates":[20.287118,42.659018]}},{"type":"Feature","properties":{"osm_id":"12059147779","fclass":"transfer","name":"Ria / Capital","banka":"Ria / Capital","komuna":"Pejë"},"geometry":{"type":"Point","coordinates":[20.28829,42.653428]}},{"type":"Feature","properties":{"osm_id":"12059156802","fclass":"transfer","name":"Ria / Capital","banka":"Ria / Capital","komuna":"Pejë"},"geometry":{"type":"Point","coordinates":[20.289878,42.661826]}},{"type":"Feature","properties":{"osm_id":"12059185804","fclass":"transfer","name":"Ria / Capital","banka":"Ria / Capital","komuna":"Podujevë"},"geometry":{"type":"Point","coordinates":[21.191127,42.910488]}},{"type":"Feature","properties":{"osm_id":"12059190407","fclass":"transfer","name":"Ria / Capital","banka":"Ria / Capital","komuna":"Pejë"},"geometry":{"type":"Point","coordinates":[20.305168,42.657475]}},{"type":"Feature","properties":{"osm_id":"12059203936","fclass":"transfer","name":"Ria / Capital","banka":"Ria / Capital","komuna":"Pejë"},"geometry":{"type":"Point","coordinates":[20.323416,42.691318]}},{"type":"Feature","properties":{"osm_id":"12059209855","fclass":"transfer","name":"Ria / Capital","banka":"Ria / Capital","komuna":"Podujevë"},"geometry":{"type":"Point","coordinates":[21.195594,42.899166]}},{"type":"Feature","properties":{"osm_id":"12059260958","fclass":"transfer","name":"Ria / Capital","banka":"Ria / Capital","komuna":"Podujevë"},"geometry":{"type":"Point","coordinates":[21.195211,42.911818]}},{"type":"Feature","properties":{"osm_id":"12059280102","fclass":"transfer","name":"Ria / Capital","banka":"Ria / Capital","komuna":"Podujevë"},"geometry":{"type":"Point","coordinates":[21.191826,42.910846]}},{"type":"Feature","properties":{"osm_id":"12059317492","fclass":"transfer","name":"Ria / Capital","banka":"Ria / Capital","komuna":"Podujevë"},"geometry":{"type":"Point","coordinates":[21.191684,42.911861]}},{"type":"Feature","properties":{"osm_id":"12059362970","fclass":"transfer","name":"Ria / Capital","banka":"Ria / Capital","komuna":"Podujevë"},"geometry":{"type":"Point","coordinates":[21.189479,42.911206]}},{"type":"Feature","properties":{"osm_id":"12060648714","fclass":"transfer","name":"Ria / Capital","banka":"Ria / Capital","komuna":"Prizren"},"geometry":{"type":"Point","coordinates":[20.736693,42.210008]}},{"type":"Feature","properties":{"osm_id":"12060671495","fclass":"transfer","name":"Ria / Capital","banka":"Ria / Capital","komuna":"Prizren"},"geometry":{"type":"Point","coordinates":[20.720032,42.205729]}},{"type":"Feature","properties":{"osm_id":"12060671506","fclass":"transfer","name":"Ria / Capital","banka":"Ria / Capital","komuna":"Prizren"},"geometry":{"type":"Point","coordinates":[20.731539,42.210613]}},{"type":"Feature","properties":{"osm_id":"12060675400","fclass":"transfer","name":"Ria / Capital","banka":"Ria / Capital","komuna":"Prizren"},"geometry":{"type":"Point","coordinates":[20.618181,42.164664]}},{"type":"Feature","properties":{"osm_id":"12060675403","fclass":"transfer","name":"Ria / Capital","banka":"Ria / Capital","komuna":"Prizren"},"geometry":{"type":"Point","coordinates":[20.725742,42.215662]}},{"type":"Feature","properties":{"osm_id":"12060682524","fclass":"transfer","name":"Ria / Capital","banka":"Ria / Capital","komuna":"Prizren"},"geometry":{"type":"Point","coordinates":[20.743763,42.217482]}},{"type":"Feature","properties":{"osm_id":"12060682754","fclass":"transfer","name":"Ria / Capital","banka":"Ria / Capital","komuna":"Prizren"},"geometry":{"type":"Point","coordinates":[20.729711,42.212897]}},{"type":"Feature","properties":{"osm_id":"12060692157","fclass":"transfer","name":"Ria / Capital","banka":"Ria / Capital","komuna":"Prizren"},"geometry":{"type":"Point","coordinates":[20.733464,42.215082]}},{"type":"Feature","properties":{"osm_id":"12060692336","fclass":"transfer","name":"Ria / Capital","banka":"Ria / Capital","komuna":"Prizren"},"geometry":{"type":"Point","coordinates":[20.720986,42.206475]}},{"type":"Feature","properties":{"osm_id":"12060704654","fclass":"transfer","name":"Ria / Capital","banka":"Ria / Capital","komuna":"Prizren"},"geometry":{"type":"Point","coordinates":[20.73131,42.217554]}},{"type":"Feature","properties":{"osm_id":"12060712790","fclass":"transfer","name":"Ria / Capital","banka":"Ria / Capital","komuna":"Rahovec"},"geometry":{"type":"Point","coordinates":[20.657484,42.397736]}},{"type":"Feature","properties":{"osm_id":"12060721670","fclass":"transfer","name":"Ria / Capital","banka":"Ria / Capital","komuna":"Prizren"},"geometry":{"type":"Point","coordinates":[20.643519,42.260162]}},{"type":"Feature","properties":{"osm_id":"12060728182","fclass":"transfer","name":"Ria / Capital","banka":"Ria / Capital","komuna":"Rahovec"},"geometry":{"type":"Point","coordinates":[20.657838,42.397773]}},{"type":"Feature","properties":{"osm_id":"12060728894","fclass":"transfer","name":"Ria / Capital","banka":"Ria / Capital","komuna":"Ranillug"},"geometry":{"type":"Point","coordinates":[21.598391,42.493126]}},{"type":"Feature","properties":{"osm_id":"12060733459","fclass":"transfer","name":"Ria / Capital","banka":"Ria / Capital","komuna":"Shtime"},"geometry":{"type":"Point","coordinates":[21.042668,42.434493]}},{"type":"Feature","properties":{"osm_id":"12060738672","fclass":"transfer","name":"Ria / Capital","banka":"Ria / Capital","komuna":"Rahovec"},"geometry":{"type":"Point","coordinates":[20.565375,42.355568]}},{"type":"Feature","properties":{"osm_id":"12060745294","fclass":"transfer","name":"Ria / Capital","banka":"Ria / Capital","komuna":"Rahovec"},"geometry":{"type":"Point","coordinates":[20.657414,42.396086]}},{"type":"Feature","properties":{"osm_id":"12060747195","fclass":"transfer","name":"Ria / Capital","banka":"Ria / Capital","komuna":"Shtime"},"geometry":{"type":"Point","coordinates":[21.034926,42.434353]}},{"type":"Feature","properties":{"osm_id":"12060764820","fclass":"transfer","name":"Ria / Capital","banka":"Ria / Capital","komuna":"Skenderaj"},"geometry":{"type":"Point","coordinates":[20.789333,42.748134]}},{"type":"Feature","properties":{"osm_id":"12060773523","fclass":"transfer","name":"Ria / Capital","banka":"Ria / Capital","komuna":"Shtime"},"geometry":{"type":"Point","coordinates":[21.045267,42.430068]}},{"type":"Feature","properties":{"osm_id":"12060780710","fclass":"transfer","name":"Ria / Capital","banka":"Ria / Capital","komuna":"Skenderaj"},"geometry":{"type":"Point","coordinates":[20.794607,42.747607]}},{"type":"Feature","properties":{"osm_id":"12060790307","fclass":"transfer","name":"Ria / Capital","banka":"Ria / Capital","komuna":"Shtime"},"geometry":{"type":"Point","coordinates":[21.062851,42.425419]}},{"type":"Feature","properties":{"osm_id":"12060800589","fclass":"transfer","name":"Ria / Capital","banka":"Ria / Capital","komuna":"Skenderaj"},"geometry":{"type":"Point","coordinates":[20.789221,42.74635]}},{"type":"Feature","properties":{"osm_id":"12060800614","fclass":"transfer","name":"Ria / Capital","banka":"Ria / Capital","komuna":"Therandë"},"geometry":{"type":"Point","coordinates":[20.826287,42.358795]}},{"type":"Feature","properties":{"osm_id":"12060818046","fclass":"transfer","name":"Ria / Capital","banka":"Ria / Capital","komuna":"Therandë"},"geometry":{"type":"Point","coordinates":[20.823899,42.355407]}},{"type":"Feature","properties":{"osm_id":"12060823266","fclass":"transfer","name":"Ria / Capital","banka":"Ria / Capital","komuna":"Viti"},"geometry":{"type":"Point","coordinates":[21.357602,42.321925]}},{"type":"Feature","properties":{"osm_id":"12060825574","fclass":"transfer","name":"Ria / Capital","banka":"Ria / Capital","komuna":"Therandë"},"geometry":{"type":"Point","coordinates":[20.831622,42.361852]}},{"type":"Feature","properties":{"osm_id":"12060839735","fclass":"transfer","name":"Ria / Capital","banka":"Ria / Capital","komuna":"Viti"},"geometry":{"type":"Point","coordinates":[21.356266,42.318717]}},{"type":"Feature","properties":{"osm_id":"12060846439","fclass":"transfer","name":"Ria / Capital","banka":"Ria / Capital","komuna":"Viti"},"geometry":{"type":"Point","coordinates":[21.338738,42.364599]}},{"type":"Feature","properties":{"osm_id":"12060869181","fclass":"transfer","name":"Ria / Capital","banka":"Ria / Capital","komuna":"Viti"},"geometry":{"type":"Point","coordinates":[21.356053,42.314501]}},{"type":"Feature","properties":{"osm_id":"12060891871","fclass":"transfer","name":"Ria / Capital","banka":"Ria / Capital","komuna":"Vushtrri"},"geometry":{"type":"Point","coordinates":[20.958655,42.836366]}},{"type":"Feature","properties":{"osm_id":"12060891894","fclass":"transfer","name":"Ria / Capital","banka":"Ria / Capital","komuna":"Vushtrri"},"geometry":{"type":"Point","coordinates":[20.964912,42.822031]}},{"type":"Feature","properties":{"osm_id":"12060893003","fclass":"transfer","name":"Ria / Capital","banka":"Ria / Capital","komuna":"Vushtrri"},"geometry":{"type":"Point","coordinates":[20.960256,42.822225]}},{"type":"Feature","properties":{"osm_id":"12060904438","fclass":"transfer","name":"Ria / Capital","banka":"Ria / Capital","komuna":"Vushtrri"},"geometry":{"type":"Point","coordinates":[20.960239,42.822143]}},{"type":"Feature","properties":{"osm_id":"12060910638","fclass":"transfer","name":"Ria / Capital","banka":"Ria / Capital","komuna":"Vushtrri"},"geometry":{"type":"Point","coordinates":[20.963894,42.822799]}},{"type":"Feature","properties":{"osm_id":"12060912731","fclass":"transfer","name":"Ria / Capital","banka":"Ria / Capital","komuna":"Zveçan"},"geometry":{"type":"Point","coordinates":[20.839822,42.909425]}},{"type":"Feature","properties":{"osm_id":"12060916488","fclass":"transfer","name":"Ria / Capital","banka":"Ria / Capital","komuna":"Zubin Potok"},"geometry":{"type":"Point","coordinates":[20.69075,42.914482]}},{"type":"Feature","properties":{"osm_id":"12503967485","fclass":"transfer","name":"Ria / Capital","banka":"Ria / Capital","komuna":"Podujevë"},"geometry":{"type":"Point","coordinates":[21.249906,42.836099]}},{"type":"Feature","properties":{"osm_id":"12503974078","fclass":"transfer","name":"Ria / Capital","banka":"Ria / Capital","komuna":"Mitrovicë"},"geometry":{"type":"Point","coordinates":[20.879191,42.877492]}},{"type":"Feature","properties":{"osm_id":"12503983928","fclass":"transfer","name":"Ria / Capital","banka":"Ria / Capital","komuna":"Mitrovicë"},"geometry":{"type":"Point","coordinates":[20.86786,42.889859]}},{"type":"Feature","properties":{"osm_id":"12503990595","fclass":"transfer","name":"Ria / Capital","banka":"Ria / Capital","komuna":"Zubin Potok"},"geometry":{"type":"Point","coordinates":[20.693904,42.913363]}},{"type":"Feature","properties":{"osm_id":"12504003895","fclass":"transfer","name":"Ria / Capital","banka":"Ria / Capital","komuna":"Vushtrri"},"geometry":{"type":"Point","coordinates":[20.963795,42.821418]}},{"type":"Feature","properties":{"osm_id":"12504008225","fclass":"transfer","name":"Ria / Capital","banka":"Ria / Capital","komuna":"Prishtinë"},"geometry":{"type":"Point","coordinates":[21.172615,42.645954]}},{"type":"Feature","properties":{"osm_id":"12504014804","fclass":"transfer","name":"Ria / Capital","banka":"Ria / Capital","komuna":"Kamenicë"},"geometry":{"type":"Point","coordinates":[21.681797,42.543422]}},{"type":"Feature","properties":{"osm_id":"12504016144","fclass":"transfer","name":"Ria / Capital","banka":"Ria / Capital","komuna":"Podujevë"},"geometry":{"type":"Point","coordinates":[21.192906,42.906876]}},{"type":"Feature","properties":{"osm_id":"12504017353","fclass":"transfer","name":"Ria / Capital","banka":"Ria / Capital","komuna":"Prishtinë"},"geometry":{"type":"Point","coordinates":[21.1421,42.750186]}},{"type":"Feature","properties":{"osm_id":"12504020745","fclass":"transfer","name":"Ria / Capital","banka":"Ria / Capital","komuna":"Mitrovicë"},"geometry":{"type":"Point","coordinates":[20.865315,42.878301]}},{"type":"Feature","properties":{"osm_id":"12504030791","fclass":"transfer","name":"Ria / Capital","banka":"Ria / Capital","komuna":"Prishtinë"},"geometry":{"type":"Point","coordinates":[21.178234,42.655956]}},{"type":"Feature","properties":{"osm_id":"12504049221","fclass":"transfer","name":"Ria / Capital","banka":"Ria / Capital","komuna":"Fushë Kosovë"},"geometry":{"type":"Point","coordinates":[21.092191,42.63309]}},{"type":"Feature","properties":{"osm_id":"12504050270","fclass":"transfer","name":"Ria / Capital","banka":"Ria / Capital","komuna":"Leposaviq"},"geometry":{"type":"Point","coordinates":[20.805042,43.091389]}},{"type":"Feature","properties":{"osm_id":"12504050272","fclass":"transfer","name":"Ria / Capital","banka":"Ria / Capital","komuna":"Zveçan"},"geometry":{"type":"Point","coordinates":[20.842785,42.942024]}},{"type":"Feature","properties":{"osm_id":"12504051862","fclass":"transfer","name":"Ria / Capital","banka":"Ria / Capital","komuna":"Gjilan"},"geometry":{"type":"Point","coordinates":[21.504425,42.452706]}},{"type":"Feature","properties":{"osm_id":"12504059355","fclass":"transfer","name":"Ria / Capital","banka":"Ria / Capital","komuna":"Mitrovicë Veriore"},"geometry":{"type":"Point","coordinates":[20.865804,42.894496]}},{"type":"Feature","properties":{"osm_id":"12504060181","fclass":"transfer","name":"Ria / Capital","banka":"Ria / Capital","komuna":"Malishevë"},"geometry":{"type":"Point","coordinates":[20.719359,42.570431]}},{"type":"Feature","properties":{"osm_id":"12504062716","fclass":"transfer","name":"Ria / Capital","banka":"Ria / Capital","komuna":"Pejë"},"geometry":{"type":"Point","coordinates":[20.297282,42.662119]}},{"type":"Feature","properties":{"osm_id":"12504066360","fclass":"transfer","name":"Ria / Capital","banka":"Ria / Capital","komuna":"Leposaviq"},"geometry":{"type":"Point","coordinates":[20.800885,43.101049]}},{"type":"Feature","properties":{"osm_id":"12504078628","fclass":"transfer","name":"Ria / Capital","banka":"Ria / Capital","komuna":"Gjilan"},"geometry":{"type":"Point","coordinates":[21.471514,42.454377]}},{"type":"Feature","properties":{"osm_id":"12504079877","fclass":"transfer","name":"Ria / Capital","banka":"Ria / Capital","komuna":"Prishtinë"},"geometry":{"type":"Point","coordinates":[21.146239,42.625905]}},{"type":"Feature","properties":{"osm_id":"13006572198","fclass":"transfer","name":"Ria / Capital","banka":"Ria / Capital","komuna":"Vushtrri"},"geometry":{"type":"Point","coordinates":[20.968115,42.82216]}},{"type":"Feature","properties":{"osm_id":"13006572199","fclass":"transfer","name":"Ria / Capital","banka":"Ria / Capital","komuna":"Prishtinë"},"geometry":{"type":"Point","coordinates":[21.172511,42.659727]}},{"type":"Feature","properties":{"osm_id":"13006572200","fclass":"transfer","name":"Ria / Capital","banka":"Ria / Capital","komuna":"Rahovec"},"geometry":{"type":"Point","coordinates":[20.653083,42.400278]}},{"type":"Feature","properties":{"osm_id":"13006612202","fclass":"transfer","name":"Ria / Capital","banka":"Ria / Capital","komuna":"Podujevë"},"geometry":{"type":"Point","coordinates":[21.194844,42.901842]}},{"type":"Feature","properties":{"osm_id":"13006612203","fclass":"transfer","name":"Ria / Capital","banka":"Ria / Capital","komuna":"Prishtinë"},"geometry":{"type":"Point","coordinates":[21.158298,42.650015]}},{"type":"Feature","properties":{"osm_id":"13081725472","fclass":"transfer","name":"Ria / Capital","banka":"Ria / Capital","komuna":"Prishtinë"},"geometry":{"type":"Point","coordinates":[21.171074,42.659836]}},{"type":"Feature","properties":{"osm_id":"13081830396","fclass":"transfer","name":"Ria / Capital","banka":"Ria / Capital","komuna":"Ferizaj"},"geometry":{"type":"Point","coordinates":[21.14947,42.38071]}},{"type":"Feature","properties":{"osm_id":"1603932434","fclass":"transfer","name":"Western Union","banka":"Western Union","komuna":"Mitrovicë"},"geometry":{"type":"Point","coordinates":[20.867045,42.88906]}},{"type":"Feature","properties":{"osm_id":"2162845821","fclass":"transfer","name":"Western Union","banka":"Western Union","komuna":"Prishtinë"},"geometry":{"type":"Point","coordinates":[21.162441,42.648399]}},{"type":"Feature","properties":{"osm_id":"2164122562","fclass":"transfer","name":"Ria / Capital","banka":"Ria / Capital","komuna":"Prishtinë"},"geometry":{"type":"Point","coordinates":[21.160346,42.664033]}},{"type":"Feature","properties":{"osm_id":"2494110879","fclass":"transfer","name":"Western Union","banka":"Western Union","komuna":"Junik"},"geometry":{"type":"Point","coordinates":[20.277217,42.47631]}},{"type":"Feature","properties":{"osm_id":"4688766092","fclass":"transfer","name":"Kembimore","banka":"Kembimore","komuna":"Gjilan"},"geometry":{"type":"Point","coordinates":[21.4724,42.467352]}},{"type":"Feature","properties":{"osm_id":"4708489430","fclass":"transfer","name":"Ria / Capital","banka":"Ria / Capital","komuna":"Deçan"},"geometry":{"type":"Point","coordinates":[20.289099,42.539355]}},{"type":"Feature","properties":{"osm_id":"4708489431","fclass":"transfer","name":"MoneyGram","banka":"MoneyGram","komuna":"Deçan"},"geometry":{"type":"Point","coordinates":[20.288561,42.540151]}},{"type":"Feature","properties":{"osm_id":"4959823422","fclass":"transfer","name":"Western Union","banka":"Western Union","komuna":"Podujevë"},"geometry":{"type":"Point","coordinates":[21.19142,42.909383]}},{"type":"Feature","properties":{"osm_id":"4959823423","fclass":"transfer","name":"Western Union","banka":"Western Union","komuna":"Podujevë"},"geometry":{"type":"Point","coordinates":[21.191499,42.909325]}},{"type":"Feature","properties":{"osm_id":"5132918946","fclass":"transfer","name":"Western Union","banka":"Western Union","komuna":"Vushtrri"},"geometry":{"type":"Point","coordinates":[20.968416,42.821756]}},{"type":"Feature","properties":{"osm_id":"5935286600","fclass":"transfer","name":"Western Union","banka":"Western Union","komuna":"Prishtinë"},"geometry":{"type":"Point","coordinates":[21.15209,42.632263]}},{"type":"Feature","properties":{"osm_id":"6015238152","fclass":"transfer","name":"Western Union","banka":"Western Union","komuna":"Lipjan"},"geometry":{"type":"Point","coordinates":[21.122782,42.51924]}},{"type":"Feature","properties":{"osm_id":"6975110785","fclass":"transfer","name":"Western Union","banka":"Western Union","komuna":"Prishtinë"},"geometry":{"type":"Point","coordinates":[21.173794,42.655723]}},{"type":"Feature","properties":{"osm_id":"7139705685","fclass":"transfer","name":"Western Union","banka":"Western Union","komuna":"Pejë"},"geometry":{"type":"Point","coordinates":[20.292879,42.655273]}},{"type":"Feature","properties":{"osm_id":"7329071286","fclass":"transfer","name":"Ria / Capital","banka":"Ria / Capital","komuna":"Lipjan"},"geometry":{"type":"Point","coordinates":[21.123408,42.519678]}},{"type":"Feature","properties":{"osm_id":"7340470245","fclass":"transfer","name":"Western Union","banka":"Western Union","komuna":"Istog"},"geometry":{"type":"Point","coordinates":[20.486473,42.780907]}},{"type":"Feature","properties":{"osm_id":"8286236818","fclass":"transfer","name":"Kembimore","banka":"Kembimore","komuna":"Gjilan"},"geometry":{"type":"Point","coordinates":[21.473539,42.446779]}},{"type":"Feature","properties":{"osm_id":"9864727817","fclass":"transfer","name":"Ria / Capital","banka":"Ria / Capital","komuna":"Kaçanik"},"geometry":{"type":"Point","coordinates":[21.257208,42.230332]}}]}